{"type":"Feature","geometry":{"type":"Polygon","coordinates":[[[-96.94332900013661,32.62950600014863],[-96.94334699967997,32.62867299969659],[-96.94324000044817,32.62667400014941],[-96.94239199980312,32.626732999897094],[-96.94203799980079,
32.626760000076416],[-96.94195199958708,32.62668200004056],[-96.94193200039389,32.62667000020356],[-96.94166899972984,32.62654799987845],[-96.94148100030718,32.626461000326344],[-96.94121699981822,32.626338999716275],[-96.94113800017551,32.62630300006261],
[-96.9406519999287,32.62591700021805],[-96.94054099960061,32.625496999864154],[-96.9404689996306,32.625224000128256],[-96.94044699988929,32.625141000060104],[-96.9404269997978,32.62507699980913],[-96.94042299959985,32.62506400032001],[-96.94040300040666,
32.62500400003445],[-96.94038999998787,32.624981000103475],[-96.94018800032151,32.62460900036603],[-96.9401170001764,32.624620999722765],[-96.94002299956676,32.62463800006959],[-96.93972399981602,32.624709999945296],[-96.93929600019385,32.624441000124264],
[-96.93917700036816,32.62436600018477],[-96.93855899987688,32.623976999691834],[-96.93818300013324,32.624213999711046],[-96.93781700043534,32.62444600037022],[-96.93757800006074,32.62447200028268],[-96.9373649996254,32.62449800018758],[-96.93720999981471,
32.624516000000966],[-96.93666400019177,32.62457999989649],[-96.93658800002378,32.62459499985352],[-96.93645499995439,32.62467799967147],[-96.9363140003874,32.624762000365884],[-96.93619300001357,32.62483400014184],[-96.93613799976198,32.624867999994876],
[-96.93577100023919,32.624578000255056],[-96.93514400042538,32.62408399969843],[-96.93473900036942,32.623764999711184],[-96.93335299959902,32.62267300036471],[-96.9329910000991,32.62320500021671],[-96.9328029997781,32.62348300035774],[-96.93243999955494,
32.62396199963122],[-96.93184200005346,32.62470899974775],[-96.93163299981609,32.62470400027313],[-96.931457000089,32.62469900004159],[-96.93087499958273,32.62540099985239],[-96.93066000039589,32.625221000309445],[-96.9300200001633,32.62468400010197],
[-96.92873300002539,32.624670999799186],[-96.92827000024313,32.62466600032238],[-96.9270009996486,32.62465300001696],[-96.92635600029145,32.624028000333176],[-96.92620300013057,32.62416100028154],[-96.92580100044766,32.624536000209666],[-96.92576499956434,
32.62450500007341],[-96.92566699965504,32.62440800030994],[-96.925634999868,32.624352999835736],[-96.92557799996659,32.62423200033806],[-96.92552000024028,32.6240699998604],[-96.92547900023239,32.62386900010704],[-96.92545499994293,32.62342699985991],
[-96.92545499994293,32.62325100022891],[-96.92509400026792,32.62324700013011],[-96.9240370002838,32.62323300016116],[-96.92349099976255,32.62322499996173],[-96.92242100025796,32.62321099998935],[-96.92209200036997,32.62320699988879],[-96.92150999986372,
32.62319899968704],[-96.91787899960381,32.62315299964816],[-96.9166230003264,32.623106000126725],[-96.91507800044565,32.62311199990606],[-96.9145600004118,32.62312499967867],[-96.91445400010659,32.6231369999909],[-96.91276399956256,32.62316699962956],
[-96.91167800016446,32.6231690000591],[-96.91103899975677,32.6233019997707],[-96.91173500006586,32.62263999989857],[-96.91191800036397,32.62246000009932],[-96.91278799985203,32.621583000267044],[-96.91510400038491,32.61934000004232],[-96.9155949997563,
32.618886000007116],[-96.91513699999688,32.618867999818285],[-96.91477799997168,32.618867999818285],[-96.91421999975485,32.618850999888835],[-96.91215600001534,32.61882900015336],[-96.91121000035932,32.61881899979032],[-96.91028100042172,32.61880900018276],
[-96.90940500018756,32.61879899981748],[-96.90839900025708,32.61878900020774],[-96.90560400004838,32.61871800037379],[-96.90380100042478,32.61881099995304],[-96.900706999567,32.618904000192344],[-96.89935199965707,32.61887200011278],[-96.89507199984209,
32.61891500005155],[-96.89130500003807,32.61876099962988],[-96.89042200013124,32.61880399962197],[-96.8902659995973,32.618824999856926],[-96.89010499993883,32.61886600004926],[-96.8899340002346,32.61892400014166],[-96.88964600035452,32.619045000004725],
[-96.88924499959822,32.6191770002879],[-96.88901299979462,32.6192640001102],[-96.88893800034985,32.61928099996121],[-96.88832800025449,32.619258000072996],[-96.8874410001497,32.6192339999201],[-96.88690499967416,32.61922799988089],[-96.88660099990055,
32.619239999958964],[-96.88589000042117,32.61929799980901],[-96.8851680001728,32.619387000027736],[-96.88452200009242,32.61953200010109],[-96.8842380004103,32.61953500011055],[-96.88407000018083,32.619547999646],[-96.88398599961693,32.619556999672554],
[-96.88383400017925,32.61952499982639],[-96.88364400020846,32.61946899987889],[-96.88340200035913,32.619405000112216],[-96.88325800041909,32.6192359996809],[-96.88318499972583,32.61917100024486],[-96.88311399958071,32.619095999672915],[-96.88305800040254,
32.61905599984661],[-96.88298300005948,32.61897999967344],[-96.88298100040966,32.62056499994254],[-96.88298100040966,32.62073899983123],[-96.88298100040966,32.62118000025198],[-96.88298200023456,32.6224759998776],[-96.88414600034879,32.62404799989431],
[-96.88379700036934,32.62427300032375],[-96.88300399997587,32.62492099976228],[-96.88258100037656,32.62513499966023],[-96.88298300005948,32.62513700004574],[-96.88316200015961,32.62515000028085],[-96.8831889999238,32.62557799998316],[-96.88319999979444,
32.625730999839746],[-96.88333500041198,32.62814700001199],[-96.88359999982754,32.63304100031332],[-96.88379800019423,32.636691999906176],[-96.88371799982829,32.640101999763836],[-96.88367000014773,32.6421779998401],[-96.8836540002542,32.64387899964398],
[-96.88364900023133,32.64430299986214],[-96.88503000008055,32.64536600021212],[-96.88570600029816,32.64588600026071],[-96.88554999976422,32.64601600036775],[-96.88553700024374,32.646027999879315],[-96.8852810001507,32.64626199986699],[-96.88492399977534,
32.646603000307515],[-96.88487799974457,32.646651000298405],[-96.88456499975014,32.64693399995732],[-96.88397599957116,32.64750899985502],[-96.88447299968861,32.647511999683005],[-96.88482199966808,32.647511999683005],[-96.88536599964121,32.64750899985502],
[-96.88746500043915,32.647453999965485],[-96.88765299986181,32.64744900024892],[-96.88882600019687,32.64741499989958],[-96.88939600010926,32.64739900004217],[-96.88972400017232,32.64739400032253],[-96.88982200008161,32.64739299962214],[-96.89126900005306,
32.64737599981668],[-96.89127499990086,32.64749799972854],[-96.89125599963428,32.64882300034586],[-96.89125599963428,32.65052899962364],[-96.89125599963428,32.6523069999906],[-96.89125599963428,32.653206999955216],[-96.8912570003575,32.65408900002542],
[-96.89125900000732,32.654724999971144],[-96.89125900000732,32.654984000152176],[-96.89126099965713,32.65584699992466],[-96.89126300020529,32.656698999934946],[-96.89124899996159,32.657550000314124],[-96.89124599958853,32.65774699995986],[-96.89125499980936,
32.659173999768655],[-96.89128900014455,32.65993399978793],[-96.89128499994659,32.66013299983303],[-96.89127400007594,32.660753000150585],[-96.89126800022815,32.66191300009922],[-96.89126700040323,32.662041999811976],[-96.89126099965713,32.66323200024137],
[-96.8912570003575,32.664218999844756],[-96.89127200042611,32.6647509999263],[-96.89127599972575,32.664873000328754],[-96.89127800027389,32.666009000035274],[-96.89129099979438,32.66692600031095],[-96.89129199961927,32.66701799996516],[-96.89130800041113,
32.66811199962457],[-96.89130900023603,32.66820799992732],[-96.89131900028178,32.668856999922404],[-96.89132000010669,32.66924600034814],[-96.89132099993161,32.669347000193405],[-96.8913350001753,32.670281999921556],[-96.89135600009169,32.671878000343675],
[-96.89135400044188,32.67229500018258],[-96.89135400044188,32.672997999655365],[-96.89147200044266,32.67297400030885],[-96.89207699961683,32.672944999640556],[-96.8925379997493,32.672948000127306],[-96.8925589996657,32.672941999909845],[-96.89268800043543,
32.67293900017902],[-96.8928070002611,32.67293599969198],[-96.8928199997816,32.67419699995048],[-96.892848000269,32.67649500030681],[-96.89287000001029,32.67649500030681],[-96.89332299974683,32.6764919999392],[-96.89471100016706,32.67648100035465],
[-96.89515399985785,32.676481999973205],[-96.89690200012818,32.67648799995296],[-96.89813999986224,32.67647799998651],[-96.89953800032822,32.676468000019],[-96.89966200017678,32.676454000062606],[-96.89981000031479,32.67642800013772],[-96.89990599967594,
32.67641800016461],[-96.90004299994328,32.67641099980467],[-96.90025899985336,32.67641800016461],[-96.90170699964972,32.67640600019535],[-96.90222399985868,32.67638899985812],[-96.9023879998902,32.6763720002738],[-96.90311900035938,32.67637400026955],
[-96.90395399968733,32.67637499988935],[-96.90470199987497,32.67637699988502],[-96.90563699966035,32.67637899988065],[-96.9057880001714,32.67637899988065],[-96.90566699979757,32.67557999995184],[-96.9084639996561,32.67560099971301],[-96.90863000023577,
32.67560600012354],[-96.90862000019001,32.67644499971137],[-96.91534899970898,32.676440000103966],[-96.92138600001515,32.67643400012105],[-96.92145700016026,32.67643400012105],[-96.9224310003037,32.676440000103966],[-96.92576000043978,32.676475000374474],
[-96.92573299977728,32.6763249999829],[-96.9257129996858,32.676133000081975],[-96.92566599983013,32.67528599975226],[-96.92565800033253,32.674927999977406],[-96.92565800033253,32.674275999781344],[-96.92563400004308,32.67356899966171],[-96.92562399999734,
32.67093199965699],[-96.92563400004308,32.67046500010083],[-96.92563400004308,32.6697310000154],[-96.92563800024104,32.669432000229286],[-96.9256559997844,32.66896199977456],[-96.92565999998236,32.66846399972633],[-96.92566400018032,32.66808199993417],
[-96.92574399964793,32.667766000214066],[-96.92577700015822,32.666431000208554],[-96.92578800002887,32.664946000086985],[-96.9258030000975,32.663021000035215],[-96.92581599961795,32.662480999772846],[-96.92582400001389,32.6623400003478],[-96.9259870002205,
32.66235999966298],[-96.92618200021417,32.66237100022974],[-96.92638600042868,32.66238500012411],[-96.92900699966178,32.662391000294285],[-96.92956999990149,32.662406999737634],[-96.93084600016871,32.662398000240174],[-96.93137400024831,32.66239399962294],
[-96.93206800000928,32.662399000016286],[-96.93283899976312,32.662379999729986],[-96.93316900037432,32.66239399962294],[-96.93366099957058,32.662382999815236],[-96.93518500043326,32.662372999782626],[-96.93952899982234,32.66234599976471],[-96.94150499969831,
32.662242000235565],[-96.94186500044674,32.66222200013775],[-96.94236400021403,32.662185999799064],[-96.94259000016984,32.662172999652235],[-96.94298600000496,32.66214000014351],[-96.94306399982277,32.66214000014351],[-96.94315000003648,32.66216599968873],
[-96.94322600020445,32.662226999784494],[-96.94323299987717,32.66201600023074],[-96.94324799994577,32.661777000206236],[-96.94324799994577,32.661501999684795],[-96.94324000044817,32.659759999738924],[-96.94323700007511,32.659233000014424],[-96.94322600020445,
32.658905999777126],[-96.94317000012796,32.65728299982484],[-96.9431650001051,32.65650600037323],[-96.94317199977779,32.65620499975877],[-96.9431580004324,32.655411000222884],[-96.94314599983852,32.65521300011066],[-96.94312400009721,32.65468699991358],
[-96.94310200035592,32.65429300031538],[-96.94305499960193,32.653013999661944],[-96.94302399963979,32.65200100014745],[-96.94302199998997,32.651016000071564],[-96.94302600018793,32.65078799985815],[-96.942981999807,32.65029799994677],[-96.94296900028651,
32.6502039998976],[-96.94298000015718,32.64993700016045],[-96.94295199966976,32.64877699986507],[-96.94295699969264,32.647802999914624],[-96.94296300043874,32.64739600021041],[-96.94297099993634,32.64724400028255],[-96.9429679995633,32.64710500016712],
[-96.94294400017216,32.64608399984809],[-96.94295699969264,32.643752000166856],[-96.94293499995132,32.642121999694986],[-96.94294699964689,32.64154199991207],[-96.94294699964689,32.641350000172665],[-96.94292599973048,32.640101999763836],[-96.94288999974549,
32.63762399986705],[-96.94288100042297,32.63580899990183],[-96.94286600035434,32.63484600036538],[-96.942869999654,32.634404999952594],[-96.94287100037722,32.63427200009792],[-96.94293900014928,32.633799999939384],[-96.94309999980776,32.63318000034563],
[-96.94319600006725,32.63273599971957],[-96.94322399965633,32.63261899988815],[-96.94326499966422,32.63247100025721],[-96.94329999982432,32.63226200031028],[-96.94332400011376,32.632079999962556],[-96.94331700044107,32.63150499998555],[-96.9433199999158,
32.63106899962534],[-96.94330499984719,32.63050600004137],[-96.9433199999158,32.6298960002029],[-96.94332900013661,32.62950600014863]]]},"properties":{"GEOID":"4821628","STATE":"48","PLACE":"21628","NAME":"Duncanville city","BASENAME":"Duncanville",
"AREALAND":29018481,"AREAWATER":30948}}
