{"type":"Feature","geometry":{"type":"Polygon","coordinates":[[[-97.0342020002547,32.81827200027167],[-97.03422599964583,32.816958000291315],[-97.03278500042046,32.81688299977516],[-97.03261499964283,32.81687799973845],[-97.03057199981971,32.81682399962653],
[-97.03036099993253,32.81681900034151],[-97.02567600006158,32.81675699997332],[-97.02566600001583,32.816454999996516],[-97.02565900034315,32.81621400022109],[-97.02285099971566,32.81616200034043],[-97.02215600012977,32.816138999831814],[-97.020207000018,
32.81611299987337],[-97.01996199979561,32.81610999967441],[-97.01892800027603,32.816034999952265],[-97.01886700017667,32.816029999867894],[-97.01836900023429,32.81598600017008],[-97.0180949996996,32.81596200005123],[-97.01764399961289,32.81592200009036],
[-97.0174820001295,32.81590800013754],[-97.01675999988113,32.815856999643664],[-97.01616099965644,32.8158280001492],[-97.0158140002251,32.815828999715386],[-97.01457599959271,32.81580700019689],[-97.01446099996498,32.81580700019689],[-97.01224999991238,
32.815755000078035],[-97.01107300027766,32.81573900020956],[-97.00872800033076,32.81572500022796],[-97.00791999986868,32.815727000117604],[-97.00759500017867,32.81572799968494],[-97.00642799969138,32.815737000320176],[-97.00539699964652,32.81573599999798],
[-97.00380200043539,32.81570699970904],[-97.00240999981722,32.81567600027481],[-97.00219999975492,32.81568300026975],[-97.00192899959328,32.815685999728196],[-97.00119299999952,32.815676999842715],[-97.0001209999468,32.81565200007223],[-96.99871300033341,
32.815620999863825],[-96.99750300018842,32.815592999861124],[-96.99614699955525,32.8155899996446],[-96.99495700040005,32.81554799962264],[-96.9949520003772,32.815506000335745],[-96.99494999982905,32.81529599982875],[-96.99494900000413,32.81520199998023],
[-96.99494999982905,32.8150930003768],[-96.9949480001792,32.81480399982509],[-96.99545199996938,32.814810000311084],[-96.99545600016734,32.814214000135244],[-96.99546000036528,32.81348799995469],[-96.99546000036528,32.81346799979709],[-96.99538699967205,
32.81346199997546],[-96.99531800007507,32.8128959998783],[-96.99531100040238,32.81280700002189],[-96.99521099994496,32.811975999962],[-96.99519000002856,32.81178300036794],[-96.99516099971623,32.81154999993563],[-96.99501099992841,32.81155100030496],
[-96.9949399997833,32.811598999899076],[-96.99487399966107,32.8116009998816],[-96.99474899998759,32.811598999899076],[-96.99472399987323,32.8115550002721],[-96.99459500000182,32.8113299999518],[-96.9945380001004,32.8112259997287],[-96.9945389999253,
32.81095500016538],[-96.99452999970448,32.810897999853935],[-96.99451899983383,32.81083599988432],[-96.99449399971947,32.80993899963598],[-96.99464699988035,32.80925700004648],[-96.99467100016979,32.80916200020872],[-96.99477300027704,32.80870099983205],
[-96.99478699962242,32.808649000084976],[-96.99493499976045,32.807989000360976],[-96.99508799992131,32.80731899987235],[-96.99510399981483,32.80711999973028],[-96.99527500041738,32.80711900006613],[-96.99530100035665,32.80711900006613],[-96.99530700020442,
32.80704299988583],[-96.99532200027303,32.80684300021362],[-96.99544299974853,32.80518399989904],[-96.99561099997804,32.80510199994331],[-96.99571100043546,32.805053000173125],[-96.99575699956792,32.80503100025203],[-96.99531499970203,32.80437899991455],
[-96.9952350002344,32.80426299973323],[-96.99523600005931,32.80262699982636],[-96.99523600005931,32.80162700013991],[-96.9952419999071,32.800629000005344],[-96.9952419999071,32.79852200029283],[-96.99524799975488,32.79834299987993],[-96.99524799975488,
32.79743599966482],[-96.99524799975488,32.796123000245714],[-96.99527600024228,32.792396999920655],[-96.99529399978564,32.79028900012034],[-96.99554400003089,32.78356900032811],[-96.99556499994728,32.78115899994637],[-96.995503000023,32.77794600009796],
[-96.99550100037318,32.77780500033777],[-96.99538099982426,32.77780900031257],[-96.99485000026992,32.777835000144734],[-96.99464100003257,32.77785699999676],[-96.99456700041272,32.77787299988573],[-96.99451600035908,32.777882999814885],[-96.99416200035675,
32.77794600009796],[-96.9864139995902,32.777895999721125],[-96.98233899981462,32.777873999878686],[-96.98184400024529,32.77791600032839],[-96.98147400034945,32.77797199989009],[-96.98095200011763,32.77809500031418],[-96.98056899980298,32.77823299964816],
[-96.98017299996786,32.77841799967281],[-96.97975399966819,32.77866499985733],[-96.97940200021401,32.77893900035759],[-96.9790630002803,32.77924999994435],[-96.97853500020068,32.77991199995487],[-96.97785700033326,32.78084800023498],[-96.9774089997213,
32.781407000027514],[-96.97725899993345,32.78157400037181],[-96.9772120000778,32.78161499987926],[-96.97710599977258,32.78172800030295],[-96.97694699976392,32.781882999915375],[-96.97671099976237,32.782072999632305],[-96.9764720002861,32.78224499995622],
[-96.97615599991859,32.78243199983013],[-96.97583799990129,32.782577000326086],[-96.97556199971676,32.78268900034427],[-96.97530200032406,32.78278800027667],[-96.97446200007494,32.78300200028806],[-96.97427999960175,32.783024000373004],[-96.97406799988964,
32.78306799977127],[-96.97327399967126,32.7830649999675],[-96.97288399968393,32.78306000029426],[-96.97229399968005,32.78305699973492],[-96.97171999956967,32.78305900035959],[-96.97111500039551,32.78306000029426],[-96.97054100028514,32.78304399982754],
[-96.96995799995395,32.78303299978822],[-96.96936899977499,32.78302800011319],[-96.9687639997025,32.78302199974754],[-96.96803099958349,32.78302199974754],[-96.96709400014828,32.78301700007195],[-96.96614000009633,32.78302800011319],[-96.96424500041122,
32.78302800011319],[-96.96331399992549,32.78301700007195],[-96.96233899995715,32.78302199974754],[-96.96144600000456,32.7830649999675],[-96.96024699973023,32.7830649999675],[-96.96008699989666,32.7830630000982],[-96.95999300018532,32.78306200016356],
[-96.95990600014669,32.78306200016356],[-96.95990699997161,32.78303299978822],[-96.95990899962142,32.78294700005196],[-96.95995999967505,32.78129599986045],[-96.9599699997208,32.780963000038795],[-96.95995100035253,32.78083699992414],[-96.95996700024605,
32.78013599976265],[-96.96005299956146,32.78014300029045],[-96.96049699997549,32.780180999801],[-96.96050799984612,32.77946700008314],[-96.96052499956457,32.77839100002388],[-96.96007299965295,32.77839000003667],[-96.95997599956857,32.77839000003667],
[-96.95998300013959,32.77725599981771],[-96.96001900012459,32.77400799976434],[-96.95999099963718,32.773702000183526],[-96.959999999858,32.773612000328725],[-96.96001999994951,32.77341599965862],[-96.95981400008517,32.773419999830764],[-96.95944199964117,
32.77343299963362],[-96.95919999979185,32.77322200015799],[-96.95901900004188,32.773064999715196],[-96.95902200041495,32.772884000087885],[-96.95888500014757,32.77251900032482],[-96.9586320004276,32.77201199988775],[-96.95853299979508,32.77199799981837],
[-96.95793899959324,32.771902000146156],[-96.95728300036544,32.77202299977895],[-96.9572389999845,32.77204400025403],[-96.95715199994586,32.77208100014383],[-96.95688099978422,32.772373000000435],[-96.95661299999561,32.77269300033648],[-96.95632199974249,
32.772970999779396],[-96.95622899985605,32.77322600033886],[-96.95624300009976,32.773351999901244],[-96.95633900035921,32.7735409996657],[-96.95635799972747,32.77359599967362],[-96.95646200038287,32.77377900019683],[-96.95652799960679,32.77389600014842],
[-96.95670599988205,32.77419799968051],[-96.95679499957049,32.77434900019524],[-96.95686700043883,32.77447000027772],[-96.95686400006578,32.774513000098835],[-96.95686200041595,32.77453299995587],[-96.95686200041595,32.774556999929466],[-96.95676600015649,
32.77490399992557],[-96.9566690000721,32.77510899980117],[-96.95654799969829,32.77532300015491],[-96.95640200010841,32.775615999967],[-96.95638399966676,32.77564099966656],[-96.95632500011553,32.77591599967468],[-96.9562880003056,32.77608999984232],
[-96.95623399987892,32.77640799963428],[-96.95622800003113,32.77644199994854],[-96.95618700002326,32.77658599962498],[-96.95618100017548,32.77672999982374],[-96.95611900025119,32.77683600037707],[-96.95608699956583,32.77694800006931],[-96.95596000024254,
32.77709299968395],[-96.9558039997086,32.777269999815296],[-96.95560899971494,32.777491000240325],[-96.9554649997749,32.77765499964049],[-96.95525700026074,32.77795000006644],[-96.95510300027497,32.778169000333925],[-96.95503600032782,32.77826400005469],
[-96.95493300039566,32.77830900028458],[-96.95481899969452,32.77835599971145],[-96.95480899964879,32.778365000354185],[-96.95457000017251,32.778495000137205],[-96.95426899987362,32.778599000128956],[-96.95392800029009,32.7786920001784],[-96.95385600032006,
32.778716999769024],[-96.95306999959928,32.778833000043576],[-96.9528110000315,32.77887200009538],[-96.95223100007335,32.779029000111755],[-96.95167799987941,32.77919299969832],[-96.95151300002297,32.77924100014641],[-96.95108700005063,32.779074999934174],
[-96.95056800019185,32.7787579998378],[-96.95051499959008,32.778440000135994],[-96.95048399962795,32.77834299987248],[-96.95048399962795,32.7782809998589],[-96.95058900010825,32.77817900022983],[-96.95093800008772,32.777843000091586],[-96.95139400019727,
32.777491000240325],[-96.9517609997201,32.77720799980933],[-96.95279699978781,32.77692900000331],[-96.95301600007092,32.77674199989272],[-96.95318599995024,32.77664600005084],[-96.95329800010323,32.77649999969938],[-96.95334199958585,32.77646500015375],
[-96.95340299968522,32.77641299968125],[-96.9534720001805,32.7763549998737],[-96.95354999999832,32.776287999931796],[-96.95354800034848,32.77619699965924],[-96.95354499997543,32.77607100034842],[-96.95354599980035,32.77600700023452],[-96.95353900012765,
32.77581400035582],[-96.95352900008191,32.77541199976938],[-96.95335699965446,32.77503999962677],[-96.95331499982166,32.77495000036983],[-96.95308200019316,32.77464400025148],[-96.95271800014508,32.77455399983868],[-96.95211700027056,32.77448299992719],
[-96.95156099970355,32.77469200013226],[-96.951444000426,32.77473699990259],[-96.95118599978481,32.774857000185996],[-96.95093899991261,32.77497200017981],[-96.95077800025413,32.774987999832206],[-96.95057999988741,32.775008000337806],[-96.95033499966503,
32.775014999758426],[-96.94986699985988,32.7750280000836],[-96.9497689999506,32.77503100015841],[-96.94954100034498,32.77504099965162],[-96.94876399984503,32.77518700013089],[-96.94814200005409,32.77541799989294],[-96.947818000189,32.775732999769325],
[-96.94761499979938,32.775927999853415],[-96.94746800038463,32.77619300036723],[-96.94720399989565,32.776539000018445],[-96.94676899970248,32.7768429996539],[-96.94647400014969,32.77694200004886],[-96.94615500030747,32.77695200008265],[-96.94565200034222,
32.776884999834934],[-96.94534299964742,32.77680700023824],[-96.94520899975312,32.776754999965604],[-96.94486700034467,32.776608999793034],[-96.94464399986362,32.77647600024981],[-96.94452300038809,32.77640300034221],[-96.94440600021223,32.77626299965868],
[-96.94430699957971,32.77614399977306],[-96.94416199981474,32.775968999696666],[-96.94413500005057,32.77593699998644],[-96.94406700027851,32.77585600026722],[-96.94406200025564,32.77577199966929],[-96.94405200020991,32.7755999996722],[-96.94404700018703,
32.77550500012847],[-96.94413400022566,32.77528099999196],[-96.94417500023354,32.77517399982889],[-96.94413800042362,32.77504099965162],[-96.9440949998676,32.77489000031106],[-96.94412400017991,32.774752000324526],[-96.94413900024853,32.774674999642436],
[-96.94415799961679,32.774581999926525],[-96.94416900038576,32.77451800025235],[-96.94420500037077,32.77431399980361],[-96.94426100044727,32.77407599994791],[-96.94435400033369,32.77377500004083],[-96.94406499973037,32.77319599973336],[-96.94312099972416,
32.77312100006372],[-96.94290999983697,32.77328800009784],[-96.94226600030473,32.773346999682225],[-96.94199900034103,32.77391099995678],[-96.9423139999853,32.77421899964237],[-96.94235199962014,32.77446600015276],[-96.94237900028263,32.77464400025148],
[-96.94239199980312,32.77472500031857],[-96.94247600036702,32.77539600019316],[-96.94249700028341,32.775600999690695],[-96.94252999989537,32.77595000017693],[-96.94254199959093,32.776048000041364],[-96.94264299987327,32.77684999968543],[-96.9424899997124,
32.77711499971943],[-96.94243799983387,32.777188999798895],[-96.94210800012098,32.77737899972099],[-96.94199000012021,32.7774460003521],[-96.9416369999428,32.777648999667775],[-96.94142400040577,32.777799000375104],[-96.94121099997044,32.77789499972836],
[-96.94119500007692,32.777900999684555],[-96.94066399962425,32.77800299963226],[-96.9404050000565,32.778068999802706],[-96.94013499971976,32.77810400022803],[-96.93941599984444,32.778290999742154],[-96.93897200032875,32.77844200010915],[-96.93735999960252,
32.77886000031367],[-96.93640200025094,32.77913700014976],[-96.93578999960744,32.779367000255476],[-96.93508800034887,32.779554000136365],[-96.93417199993176,32.77981799969893],[-96.93361899973779,32.780035999931656],[-96.9326320000739,32.78022000001724],
[-96.93193999996276,32.780386000359094],[-96.93139500016471,32.7805610000565],[-96.93104399963713,32.78062200002978],[-96.93050300003705,32.780779999939526],[-96.93002900038411,32.780961000122296],[-96.92957999994722,32.781115000359186],[-96.92932800005217,
32.78120100035589],[-96.92898300027066,32.7813020003425],[-96.92856099959795,32.78142300003339],[-96.92814499967135,32.781535999945675],[-96.92760999991904,32.78167799978562],[-96.92732600023693,32.78175399974514],[-96.92685400023382,32.781915999700566],
[-96.92673799988287,32.78195599985861],[-96.92645000000277,32.78202400001043],[-96.9260919998025,32.78210799999302],[-96.92607699973388,32.782076000224784],[-96.92535799985858,32.78253199998914],[-96.92510099994061,32.78268200001685],[-96.92439799995881,
32.78304800032213],[-96.92315299965374,32.783676000213994],[-96.92227800014282,32.78415900025728],[-96.92175900028404,32.78442700018206],[-96.92074900015561,32.784838000053654],[-96.92025799988593,32.785044000366405],[-96.91964600014073,32.78538599994955],
[-96.91937199960604,32.785530000255115],[-96.91914599965021,32.785638999859444],[-96.91890200015108,32.785718999830415],[-96.91858999998153,32.785745000371925],[-96.91829200005571,32.785686999850654],[-96.9181869995754,32.785656999670394],[-96.91800900019847,
32.78559500022234],[-96.91790600026633,32.78554500036798],[-96.91778300024268,32.78546299966996],[-96.91759699957151,32.78531600028323],[-96.91741599982156,32.785198000332606],[-96.91717599962203,32.78506799977057],[-96.91701300031374,32.784985000230286],
[-96.91675300002274,32.7848290000658],[-96.91610299974441,32.784488999688946],[-96.91581800023737,32.78436300003667],[-96.91565500003072,32.78431099964866],[-96.91538100039436,32.784255000300554],[-96.91515700008839,32.78424099989162],[-96.91489400032263,
32.784255000300554],[-96.9146249998108,32.78429199964455],[-96.91438899980926,32.78433100032434],[-96.91423900002142,32.78435699976106],[-96.9140320003322,32.78443299969771],[-96.91392500020208,32.78449499995564],[-96.91375699997258,32.784615999835125],
[-96.91347499994026,32.784804999841924],[-96.91313900037962,32.78505500015706],[-96.91284200027869,32.78531900001114],[-96.91249999997193,32.78570499965189],[-96.91211599983237,32.78644999972609],[-96.91173000004298,32.78705799971019],[-96.91145999970625,
32.78751899979223],[-96.91117199982615,32.78811300022177],[-96.9109760000076,32.788663000075296],[-96.91074099983095,32.789431000169955],[-96.9106539997923,32.78965400031498],[-96.9106039995636,32.789892999893745],[-96.91055300040829,32.790655000089146],
[-96.91052499992087,32.7910749999925],[-96.91052499992087,32.791388999721335],[-96.91048700028605,32.79178699975653],[-96.91046399982152,32.79194699989488],[-96.91039100002656,32.79226799989434],[-96.9101449999793,32.79284200005627],[-96.91006600033656,
32.793006999676415],[-96.90987600036577,32.793342000114514],[-96.90969100041784,32.793672000213824],[-96.90931599960079,32.794189999730634],[-96.90927700014105,32.794260999773314],[-96.90906399970572,32.79452399968213],[-96.90900199978142,32.794618000256186],
[-96.90893499983429,32.79469399973186],[-96.90882799970417,32.79483499990856],[-96.90876599977989,32.79492500019368],[-96.90853099960326,32.79534900026095],[-96.90839099986117,32.79569800030078],[-96.90828999957883,32.79593199978973],[-96.90825100011908,
32.79601300010831],[-96.9081049996309,32.796351999690124],[-96.90806000032336,32.79643299962611],[-96.90781400027608,32.7966490003532],[-96.90757099970351,32.79690299971886],[-96.90744199983207,32.79703000026227],[-96.90735300014362,32.79711100033576],
[-96.90715599960181,32.79726199971637],[-96.9070279995553,32.79734199980441],[-96.90690999955451,32.79739300035155],[-96.90648699995522,32.797553000219864],[-96.90486099988361,32.79807099978186],[-96.90454200004139,32.79814300026634],[-96.90412199991682,
32.79819500011855],[-96.90403200040345,32.79819800016722],[-96.90355600020239,32.79819800016722],[-96.9022189998358,32.79813300034939],[-96.90122200012614,32.79803400012894],[-96.90087200032175,32.79802499996615],[-96.9005579996041,32.79805300021798],
[-96.90013199963174,32.79810500012281],[-96.89950099961999,32.798118999859604],[-96.8993759999465,32.79813300034939],[-96.89852200035199,32.79819200006983],[-96.89932400006798,32.79860200000224],[-96.89969700033687,32.79884200020888],[-96.90000600013337,
32.79909200033296],[-96.9015369997704,32.80066800031708],[-96.9024160003776,32.80226699987595],[-96.9032199997434,32.80355900009836],[-96.9037050001653,32.80428100030506],[-96.90375000037115,32.804346999853614],[-96.90402400000754,32.804771999982954],
[-96.90412399956664,32.8049399999374],[-96.90418300001619,32.805024999860805],[-96.90444900015497,32.805442000039704],[-96.9045649996076,32.8055940000529],[-96.90491000028743,32.8060409999369],[-96.90526599993957,32.80657900007798],[-96.90555499964458,
32.807087999901086],[-96.90572100022425,32.80740300012487],[-96.90587600003494,32.807805999998635],[-96.90593600030941,32.808027000054814],[-96.9060769998764,32.80874199966924],[-96.9061120000365,32.80891999988492],[-96.90612899975493,32.809044000189296],
[-96.90614100034881,32.809130000359694],[-96.90614200017373,32.809179999788384],[-96.90614899984641,32.80939300007464],[-96.90615800006725,32.80964700002513],[-96.9061129998614,32.813840000028],[-96.90612899975493,32.81428599962391],[-96.90600999992924,
32.815090999717896],[-96.90590699999709,32.81569400004503],[-96.90580400006492,32.815925000295664],[-96.9057530000113,32.81601099984665],[-96.9056969999348,32.81619399992215],[-96.90543300034416,32.81660300030838],[-96.90525099987096,32.81687400001091],
[-96.90516499965723,32.81698299969438],[-96.90464300032373,32.817574000172726],[-96.90427799955243,32.817912000275946],[-96.90337700010224,32.81879699963226],[-96.9031419999256,32.81902600030415],[-96.90137899958667,32.82075699992956],[-96.90037299965617,
32.821680000280985],[-96.89991800026982,32.822082000078616],[-96.89911400000568,32.823014000148994],[-96.89761599998062,32.82440400012758],[-96.89696400005246,32.8251039998375],[-96.89556899995954,32.8250659998978],[-96.89558200037834,32.82561100031827],
[-96.89531100021668,32.82579800032631],[-96.8945739998997,32.826389999733635],[-96.89365199963481,32.8272610002542],[-96.89296600026978,32.827790000075574],[-96.89230500012079,32.82836000036319],[-96.89220499966335,32.8284529996975],[-96.89214199991416,
32.82852499972398],[-96.89207999998987,32.82860900031014],[-96.89181200020128,32.82908400019768],[-96.89173100001042,32.829185000140214],[-96.89145800019894,32.82948199978402],[-96.89091599987565,32.83008099991468],[-96.89080600027079,32.83021900008916],
[-96.89073199975263,32.8303140000573],[-96.89133400035038,32.83070499984944],[-96.89133400035038,32.83072100004173],[-96.89125599963428,32.830931000316745],[-96.89111400024237,32.831102000324826],[-96.89101299996001,32.83134899983901],[-96.89095000021082,
32.83150700018251],[-96.89081700014145,32.83143599969985],[-96.89079600022505,32.83159200035616],[-96.89048499988043,32.83247999968454],[-96.8905109998197,32.832589999976015],[-96.89032300039703,32.833052999688405],[-96.89032400022195,32.83346499980872],
[-96.89002999959575,32.8345329997278],[-96.89007099960362,32.83489900017502],[-96.89048499988043,32.83559499979552],[-96.89060899972898,32.83613399995731],[-96.8905889996375,32.836690999910154],[-96.89044399987255,32.837142999989126],[-96.89031900019907,
32.83745699999856],[-96.8902780001912,32.83789200022706],[-96.8902570002748,32.83905800033353],[-96.89033799956734,32.83906399993587],[-96.89034099994039,32.840252000005954],[-96.89039299981891,32.84065000010162],[-96.89080200007282,32.840642999810036],
[-96.89129199961927,32.840637000314416],[-96.89127599972575,32.83807100022603],[-96.89126800022815,32.837991999891486],[-96.89120499958065,32.838279000340755],[-96.89122800004519,32.83742399969647],[-96.8918709997525,32.83741100019162],[-96.89193500022492,
32.83750399985878],[-96.89191900033141,32.837708000248234],[-96.89182300007192,32.83772099970959],[-96.8918060003535,32.83809899993604],[-96.89183899996547,32.83809799986568],[-96.89187499995049,32.83860500012796],[-96.8918060003535,32.83880099975252],
[-96.89182300007192,32.83936800013836],[-96.8918709997525,32.84048699996148],[-96.89185499985898,32.8413379996501],[-96.89176899964525,32.84133899968397],[-96.89085800014932,32.84133899968397],[-96.89034400031342,32.84133899968397],[-96.89034500013834,
32.84162799993994],[-96.89040899971245,32.842122000094705],[-96.89042299995616,32.84270299990567],[-96.89034699978816,32.84272800036428],[-96.89033799956734,32.84382799998681],[-96.8903569998339,32.84422199989209],[-96.89038399959809,32.844347999975405],
[-96.89043300000189,32.84460400034851],[-96.89043300000189,32.845050000183925],[-96.89040100021484,32.845332999744706],[-96.89025599955157,32.84565700007003],[-96.89007899999956,32.845872999629755],[-96.88985399986866,32.846264000332816],[-96.88964499963129,
32.846722999780425],[-96.88945300001068,32.84720899975993],[-96.88945300001068,32.84747899968861],[-96.88959699995071,32.84758700033574],[-96.88972599982215,32.847533000028584],[-96.89003100031898,32.8472630002642],[-96.89044899989541,32.846938999764454],
[-96.89102700020374,32.84668300008901],[-96.89161399983456,32.84663399985765],[-96.89221600043233,32.846722999780425],[-96.89273000026822,32.846872000189],[-96.89314700001974,32.84714099966514],[-96.89366500005359,32.84746300025242],[-96.89354600022791,
32.84755100013466],[-96.89320100044642,32.847802999726255],[-96.89331199987618,32.847925000169866],[-96.8935880000607,32.84814400011869],[-96.89369799966556,32.84825599978023],[-96.89378200022946,32.84840699978747],[-96.89381200036668,32.84849099967526],
[-96.89385500002439,32.84865700006425],[-96.89387400029098,32.84890299984236],[-96.89385900022235,32.849072000055514],[-96.89369600001575,32.84954999971522],[-96.89366300040378,32.84973799980739],[-96.89366500005359,32.849794000159285],[-96.89367699974916,
32.84984300015519],[-96.89372299977992,32.84996000037479],[-96.89382900008512,32.85013800025181],[-96.89390799972786,32.850247999793744],[-96.89402699955353,32.8503860003161],[-96.89437300005825,32.85069900033891],[-96.89447900036345,32.85076600004362],
[-96.89457800009767,32.85080500023144],[-96.8947499996268,32.85084800010899],[-96.89495200019148,32.850887000260755],[-96.89521800033026,32.85093000009857],[-96.89529299977501,32.850934999727365],[-96.89536200027031,32.85092000008551],[-96.89593600038066,
32.8506790002596],[-96.89620499999418,32.85058899984671],[-96.89656700039242,32.85048999996632],[-96.89742299963677,32.85035799995401],[-96.89766600020933,32.85035300029274],[-96.89805299982362,32.8503860003161],[-96.89815300028104,32.850401999979965],
[-96.89824699999237,32.850427999710575],[-96.89835300029759,32.85047600018016],[-96.89842199989457,32.85048999996632],[-96.89855300031414,32.85054899963394],[-96.89862799975889,32.850606000158095],[-96.89874599975967,32.8507159998746],[-96.89882100010274,
32.850861999836525],[-96.8988400003693,32.85091499970119],[-96.89883399962322,32.85096199998191],[-96.89881500025496,32.8510200001656],[-96.8987900001406,32.851072999935894],[-96.89868999968317,32.85120399971656],[-96.89792200030236,32.85193699964434],
[-96.89788499959413,32.8520100001601],[-96.89888100037717,32.85199200020389],[-96.89921699993785,32.85199400003151],[-96.9003950002958,32.852002000096135],[-96.90053699968769,32.852002000096135],[-96.9006920003967,32.85200399992353],[-96.90076099999368,
32.85194700029743],[-96.9010649997673,32.85200800033283],[-96.90200600029877,32.8520200000503],[-96.90286400009126,32.852030999852836],[-96.90335500036095,32.85203700008752],[-96.9044080001471,32.85205099962741],[-96.90473899968488,32.85213900024236],
[-96.90484199961705,32.8521419999788],[-96.9049920003032,32.85211099967884],[-96.90511199995377,32.85208100003552],[-96.90522099973371,32.85206300009372],[-96.9066269996973,32.85208199994834],[-96.90595899987562,32.853346999861635],[-96.90555399981966,
32.85384699979658],[-96.9056330003607,32.85385600034159],[-96.90576899990481,32.853865000131094],[-96.90598499981488,32.85392900003312],[-96.90617200031095,32.85399499967151],[-96.90643199970363,32.85409900037416],[-96.90653600035903,32.854138999741195],
[-96.90659499991025,32.854176000177276],[-96.90667500027621,32.85423399976925],[-96.906789000079,32.854325000145565],[-96.9069020000569,32.85443800019273],[-96.90700400016416,32.85457700012006],[-96.90712800001273,32.854827000369696],[-96.90719199958683,
32.85498499967521],[-96.90728899967121,32.85536099982337],[-96.90733200022721,32.85549200006464],[-96.90742900031161,32.855623000112416],[-96.90755800018303,32.85573500014398],[-96.90764500022168,32.855798000335334],[-96.90771999966641,32.85584299979787],
[-96.90789200009388,32.855933000163674],[-96.90814499981387,32.8560559998619],[-96.90824799974604,32.856083000067336],[-96.90835499987615,32.85609099976326],[-96.90847899972472,32.856088000160405],[-96.90852200028073,32.85607899984176],[-96.90858099983197,
32.856073999748254],[-96.90873700036589,32.85604599967195],[-96.90885000034379,32.85602000007832],[-96.90902299969783,32.85596600037552],[-96.90919500012528,32.8558930000962],[-96.90932999984449,32.85582900010169],[-96.90988999971115,32.85554099993235],
[-96.91022299979707,32.855391999742366],[-96.91036900028527,32.855333000276666],[-96.91052499992087,32.85528799980081],[-96.91065899981518,32.85526899987817],[-96.91078900040984,32.855261000108065],[-96.91096099993896,32.85528799980081],[-96.91121899968184,
32.85537299984199],[-96.91141299985058,32.855460000305804],[-96.91157500023229,32.855554999673984],[-96.91167700033954,32.855653999939925],[-96.91177400042392,32.85576199969248],[-96.91182799995228,32.85586200035221],[-96.91194599995305,32.856115000356034],
[-96.9119839995879,32.85621900008274],[-96.91212900025116,32.8568380003598],[-96.91225300009972,32.85746700012163],[-96.9123009997803,32.857639000175],[-96.91236600007763,32.857765000072604],[-96.91246800018487,32.857905999763815],[-96.91254400035287,
32.857992000161154],[-96.91262999966825,32.85805500025897],[-96.91272099990488,32.85809599995118],[-96.91284499975343,32.85814099975729],[-96.91291500007362,32.85815399999881],[-96.913012000158,32.858168000082706],[-96.91310900024239,32.858168000082706],
[-96.91319999958066,32.858158999975146],[-96.91330300041113,32.85814099975729],[-96.91350699972732,32.85807199989443],[-96.91363599959877,32.85800499966995],[-96.91371699978961,32.857942000291295],[-96.91378700010982,32.85783800032072],[-96.9138299997675,
32.85775099992512],[-96.9138630002778,32.85764300033017],[-96.91390000008772,32.85744899976337],[-96.91394899959322,32.85705899990732],[-96.91396500038505,32.85684199979649],[-96.91399200014922,32.85661200019844],[-96.91400300001989,32.85654899983046],
[-96.91403499980694,32.85647699989416],[-96.91406199957112,32.85643999966311],[-96.91409900027934,32.856403000171234],[-96.91421300008217,32.856322999687535],[-96.91467599986444,32.856088000160405],[-96.91475100020749,32.8560559998619],[-96.91490199982024,
32.85600599965543],[-96.91503599971455,32.85597800031231],[-96.9151870002256,32.85596600037552],[-96.91529500018062,32.85595199994411],[-96.91548799962617,32.85595199994411],[-96.91587599996369,32.855997000083164],[-96.91612399966081,32.85604200019933],
[-96.91624199966158,32.85605099976709],[-96.91634999961661,32.856070000276894],[-96.91644699970098,32.85609099976326],[-96.91653799993759,32.85612800013988],[-96.91662999999909,32.8561919999187],[-96.91674299997699,32.85631800036235],[-96.91680200042656,
32.85641300032095],[-96.91683400021361,32.85647699989416],[-96.9168559999549,32.856540000313274],[-96.91687199984842,32.85661200019844],[-96.91687699987129,32.856702999644824],[-96.9167859996347,32.85757999993982],[-96.91675399984766,32.857784000215304],
[-96.91672700008347,32.858009999654676],[-96.91672700008347,32.85809599995118],[-96.91674799999987,32.858194999645335],[-96.91680200042656,32.85832200010492],[-96.91684500008424,32.858403000136704],[-96.91691500040444,32.85846599994258],[-96.91695300003929,
32.858494000009664],[-96.917039000253,32.858525000343086],[-96.91710899967488,32.8585419998884],[-96.91714700020803,32.85855599991106],[-96.91722699967566,32.858565999818076],[-96.91733999965356,32.85856199970452],[-96.91744799960861,32.85853000029845],
[-96.9175170001039,32.858494000009664],[-96.91758700042409,32.85844399966808],[-96.9180879998412,32.857905999763815],[-96.91825500024578,32.85775699977302],[-96.91841599990425,32.85764300033017],[-96.91858800033172,32.857562000359046],[-96.91876599970863,
32.857503000072654],[-96.91897099974804,32.85746299995852],[-96.91934200036712,32.85741299979044],[-96.91947100023854,32.857416000103186],[-96.91958400021645,32.85743100015602],[-96.92021400040332,32.85752599967736],[-96.92139900043394,32.85774699977481],
[-96.92169300016181,32.85781800034137],[-96.92317500029336,32.858172000214076],[-96.92367400006064,32.85824299968593],[-96.92382800004643,32.858268000294146],[-96.92429800039972,32.85837900016294],[-96.92479399979396,32.85853900036841],[-96.92497200006919,
32.85861199997953],[-96.92504900006207,32.85865499984638],[-96.92514500032154,32.85871599979729],[-96.92520200022295,32.858769000252465],[-96.92523200036018,32.85882000024772],[-96.92525699957622,32.85888699985657],[-96.92528199969058,32.858991000106464],
[-96.92529500010937,32.859146999875435],[-96.9252769996677,32.859280000226086],[-96.92522200031445,32.85942300018773],[-96.92509000006994,32.85956900015874],[-96.92500600040438,32.85964499991417],[-96.92486999996193,32.8597409999093],[-96.92474799976318,
32.859817000271946],[-96.92454100007396,32.85992100018612],[-96.92437299984448,32.859991999767225],[-96.92243499960334,32.860714000049306],[-96.9223900002958,32.86073999977631],[-96.92234500008998,32.860778000292406],[-96.92229900005921,32.86083600009552],
[-96.92223499958679,32.860950999775156],[-96.92219000027927,32.861070999872496],[-96.92214199970039,32.86121899976886],[-96.92211699958602,32.86136700017291],[-96.92212199960889,32.86159599970972],[-96.9221579995939,32.861737999906495],[-96.92220299979974,
32.861868999785436],[-96.92226100042438,32.86199300010896],[-96.92233199967117,32.86208499987185],[-96.92242299990778,32.86216700003931],[-96.92258399956626,32.86228200025698],[-96.92279100015381,32.862416000230596],[-96.92299100017034,32.862524000050755],
[-96.9231850003391,32.862605999812416],[-96.92339200002834,32.86266099979407],[-96.92456299981528,32.8627610002222],[-96.92465900007474,32.86278300018053],[-96.9247550003342,32.86281299997772],[-96.92488599985546,32.86287599966963],[-96.92501200025217,
32.862963000320484],[-96.92510299959044,32.863056000375465],[-96.92526400014724,32.86327300037594],[-96.9252900000865,32.86333800006757],[-96.9252969997592,32.86338700012869],[-96.92526400014724,32.86354899992241],[-96.92521899994139,32.863680000144775],
[-96.92505800028292,32.86396699976538],[-96.92429599985158,32.86506799995057],[-96.92423099955425,32.865170000213396],[-96.92416000030745,32.86532899972346],[-96.92412799962209,32.865425000357355],[-96.9241229995992,32.865483999901556],[-96.92414699988866,
32.86558400016472],[-96.9241920000945,32.865681000282095],[-96.92424399997304,32.865735999865905],[-96.9242900000038,32.86577200023354],[-96.92436699999668,32.86580600031581],[-96.92447699960155,32.865831000301384],[-96.92460800002111,32.86583999963052],
[-96.92472199982393,32.865828000273346],[-96.9248249997561,32.865801999774206],[-96.92497399971901,32.86574599971799],[-96.92517399973555,32.86565399998004],[-96.92538700017087,32.86557200001839],[-96.92555500040038,32.86550200013829],[-96.92585199960297,
32.86540499982513],[-96.92601399998469,32.86536099969477],[-96.92610400039636,32.86534399994724],[-96.92620099958243,32.8653330002864],[-96.92629099999411,32.86535000003604],[-96.92638200023072,32.8653829997627],[-96.92645900022362,32.8654200000361],
[-96.92653700004142,32.865480999861724],[-96.92668500017942,32.865632999739454],[-96.92680499983001,32.86576900020345],[-96.92683400014232,32.8658139998894],[-96.92686299955632,32.865872999929366],[-96.92689600006662,32.865957999636485],[-96.92695799999089,
32.86616600003205],[-96.92701999991517,32.86644799964417],[-96.92702999996092,32.86655200008283],[-96.92701999991517,32.866655999644976],[-96.92699200032608,32.866839000218064],[-96.92693399970145,32.86695699964927],[-96.92686299955632,32.867073999934235],
[-96.92666099988998,32.86726100012068],[-96.92626900025282,32.86751100008476],[-96.92592600012114,32.86771299992727],[-96.9256270003704,32.86786499975189],[-96.92528199969058,32.86802599993227],[-96.92497500044223,32.868150999678576],[-96.92502099957467,
32.870749999867904],[-96.92501899992484,32.87091300024701],[-96.92526499997214,32.87084399975743],[-96.92533600011726,32.87081799997453],[-96.92542200033097,32.87076799979026],[-96.92556799992084,32.87066599993047],[-96.9257970002497,32.870479000134296],
[-96.92602499985534,32.870260000242794],[-96.92656700017865,32.86966700020533],[-96.92658100042235,32.869651999958286],[-96.92672899966203,32.86951100007736],[-96.92688199982291,32.869402999711916],[-96.92697800008239,32.86935100004791],[-96.92706799959575,
32.869314999624265],[-96.92716899987809,32.86928999986636],[-96.92729799974951,32.86927899994046],[-96.92741300027555,32.86927500031001],[-96.92753200010125,32.8692830003252],[-96.92800599975419,32.869335000029075],[-96.92832399977148,32.86940700009106],
[-96.92881800041421,32.86956299964753],[-96.92896999985186,32.869617999841665],[-96.92932700022725,32.86978100003826],[-96.92953899993935,32.86988399987376],[-96.92976300024534,32.870016000257166],[-96.93015099968454,32.870201999812316],[-96.93041400034858,
32.870306000375116],[-96.93052800015141,32.8703450002718],[-96.93074800025944,32.87044600004055],[-96.93104399963713,32.87060100032846],[-96.93112499982797,32.87066300006595],[-96.9312389996308,32.87077599967075],[-96.93133200041552,32.87089699975554],
[-96.93142500030194,32.871049000158074],[-96.93150999979245,32.871214000136256],[-96.93154900015051,32.87130100015205],[-96.93158900033347,32.871430999791045],[-96.93162500031849,32.871588000006334],[-96.9316400003871,32.87173599970487],[-96.93165000043284,
32.871939999863095],[-96.93164500040996,32.872031000181735],[-96.93161600009766,32.87216800032779],[-96.93152499986104,32.87254600018354],[-96.93143000032481,32.87287499986393],[-96.93134900013395,32.873122999737895],[-96.93127200014106,32.87330000023978],
[-96.93108600036824,32.873254999826024],[-96.93085899968919,32.8736089999494],[-96.93079099991712,32.873716000049484],[-96.93058199967977,32.87404600033455],[-96.93079000009223,32.87411099967434],[-96.93085000036668,32.87413000008751],[-96.93082899955196,
32.87420400010937],[-96.93076199960483,32.87424699996114],[-96.93073700038877,32.87426600034517],[-96.93069899985562,32.8743200002232],[-96.93065700002282,32.8743859997779],[-96.9306050001443,32.87443400010908],[-96.93056400013641,32.87448999995964],
[-96.93052599960325,32.87451600017467],[-96.93048100029573,32.87457199997344],[-96.93044299976259,32.87461800013194],[-96.93033200033281,32.874739999911945],[-96.93023400042352,32.87491000035192],[-96.93018500001972,32.87497499981269],[-96.93013999981387,
32.87504899988362],[-96.93010499965378,32.875090000018666],[-96.93006500036913,32.87516499964625],[-96.93003799970664,32.875220000137546],[-96.9300200001633,32.87528500012545],[-96.92998199963014,32.87535699988236],[-96.92997400013253,32.87536900021336],
[-96.92989999961438,32.87549299976655],[-96.92988999956864,32.875543999952285],[-96.92985100010888,32.875627000147354],[-96.92980900027608,32.87570099967407],[-96.92976700044329,32.87581500004745],[-96.92975200037468,32.87586300035937],[-96.92967200000875,
32.876071000153146],[-96.92965799976503,32.87613400023381],[-96.9296129995592,32.8762569998311],[-96.9296190003053,32.876331000340784],[-96.9295919996428,32.87638200004435],[-96.92956900007658,32.876428000018095],[-96.92954899998509,32.87658200001894],
[-96.92955499983287,32.87662500022618],[-96.92953800011443,32.876662000335116],[-96.92949499955843,32.87702500013652],[-96.92947500036526,32.87716299973961],[-96.92947399964203,32.877211000076045],[-96.92943299963413,32.87724199990226],[-96.92947799983997,
32.87736599985323],[-96.92946299977137,32.87779299982357],[-96.9294860002359,32.877838999819566],[-96.9294719999922,32.877904000150416],[-96.92944699987784,32.87794099972549],[-96.92948500041099,32.87800500036098],[-96.92949799993147,32.8783429997208],
[-96.9295270002438,32.87860699999834],[-96.92955300018305,32.87865900026888],[-96.92955200035814,32.878739000219426],[-96.92962699980289,32.878910999755355],[-96.92969200010023,32.87909599990126],[-96.92965000026743,32.879147000277314],[-96.92956099968066,
32.879182999726254],[-96.92955700038101,32.8792229998513],[-96.92959699966566,32.87925199976088],[-96.92966600016095,32.879362000164264],[-96.92969100027533,32.87951100006769],[-96.92969899977292,32.87965799976242],[-96.92971999968933,32.87977499988406],
[-96.92971499966644,32.87989199985126],[-96.92971999968933,32.87998100035481],[-96.92971499966644,32.88005800031991],[-96.92976499989516,32.88012499972572],[-96.92977099974293,32.88017600026406],[-96.92972600043541,32.88023899969041],[-96.9296970001231,
32.88030399977013],[-96.92968000040466,32.88041100008762],[-96.92965500029031,32.88054400023169],[-96.92965100009235,32.88059800005743],[-96.92963299965068,32.8806550001311],[-96.92957800029741,32.88078299969983],[-96.92956499987862,32.88084600020351],
[-96.92953800011443,32.880875000336495],[-96.92949499955843,32.88097699976639],[-96.92942000011367,32.88103100008268],[-96.92942900033448,32.88105400037505],[-96.92937200043309,32.881175000010856],[-96.92925699990704,32.881254999953704],[-96.9292390003637,
32.88126799982444],[-96.92898499992047,32.88144899974152],[-96.9287899999268,32.881578000006975],[-96.92828000028888,32.88218200017336],[-96.92819599972498,32.88227000031366],[-96.9281970004482,32.88267900028195],[-96.92820900014377,32.8827919996582],
[-96.92832100029676,32.88301699992317],[-96.92861500002462,32.883225000280326],[-96.92871100028411,32.88327000015916],[-96.92885299967601,32.88324600012603],[-96.92950499960416,32.8830279996533],[-96.93003400040699,32.88288100026715],[-96.93018599984464,
32.882885000038165],[-96.93052899997632,32.8828950002192],[-96.93102299972074,32.88297300023483],[-96.9312810003619,32.883070999750906],[-96.93144299984529,32.883144000289924],[-96.93172999990048,32.88330300000547],[-96.93186899981764,32.88351899993066],
[-96.93204799991778,32.88382899978338],[-96.9321759999643,32.88404399962847],[-96.93226300000296,32.88415299981383],[-96.93224200008655,32.88418799994175],[-96.93226100035312,32.88424199981035],[-96.93226700020091,32.884308000275574],[-96.93226999967563,
32.88433700003013],[-96.9322730000487,32.88436300037432],[-96.9322749996985,32.88439700011649],[-96.93230800020879,32.88445200015994],[-96.93229899998795,32.884504000018765],[-96.93228300009443,32.88454599985341],[-96.93227200022378,32.88457200013628],
[-96.93227200022378,32.884612000092275],[-96.93227399987359,32.88465800032112],[-96.93229099959203,32.88468899980586],[-96.93227999972139,32.88471500004677],[-96.93224200008655,32.88476900034858],[-96.93224399973637,32.88481499974152],[-96.93223700006368,
32.884857999726435],[-96.93222799984284,32.88495400033682],[-96.93222399964488,32.885009000034565],[-96.93219799970562,32.88508900028839],[-96.93215000002505,32.88515099969991],[-96.9321330003066,32.88516800017585],[-96.93212499991067,32.88520299990295],
[-96.93205600031371,32.88530499963228],[-96.93202700000138,32.885364999817575],[-96.9319509998334,32.885463999996794],[-96.93192700044229,32.88549800007093],[-96.93188800008421,32.885592000163626],[-96.93185299992412,32.88565700008915],[-96.93182799980977,
32.885694000199585],[-96.93178299960391,32.88573100029453],[-96.93169300009055,32.885844000305354],[-96.93161100007478,32.885905999943],[-96.93156199967099,32.885965999721364],[-96.93150399994465,32.88600500027218],[-96.93143799982242,32.88605599968995],
[-96.93134599976092,32.88610899964548],[-96.93129399988237,32.886148999662026],[-96.93119400032326,32.88622199992865],[-96.93112200035326,32.886258000275646],[-96.93105399968287,32.886309999829095],[-96.93099900032959,32.88635400012372],[-96.93094699955275,
32.88637900034995],[-96.93083399957484,32.88647300026246],[-96.93077500002362,32.886522999886395],[-96.93066799989349,32.88660500008363],[-96.9306269998856,32.88665599991039],[-96.93059900029652,32.88669300035807],[-96.93055699956541,32.886741000059445],
[-96.93050200021213,32.88677400012196],[-96.93038099983832,32.886892999696656],[-96.93031200024134,32.88698399975171],[-96.93027000040854,32.88705800035759],[-96.93024500029419,32.88711500004822],[-96.93013800016405,32.88727299991207],[-96.93012100044562,
32.887355000169556],[-96.93010999967666,32.88745100033783],[-96.93010700020191,32.88766000036019],[-96.9301900000426,32.88793600017941],[-96.93036999996765,32.88823600009007],[-96.93050100038721,32.888406999795905],[-96.93059900029652,32.888623000103955],
[-96.93062400041087,32.888712000137076],[-96.93063600010643,32.888817999856414],[-96.93067200009145,32.888876000175806],[-96.93072499979489,32.88895899995554],[-96.93076400015295,32.88902399967426],[-96.93080500016084,32.88906299963349],[-96.93089200019948,
32.88921799980451],[-96.93091300011586,32.88927199962516],[-96.93093900005515,32.88935300004887],[-96.93098400026098,32.889455000281465],[-96.93103000029173,32.88954199974364],[-96.93108200017028,32.88968499993134],[-96.93111499978224,32.88976899994974],
[-96.93112300017815,32.8898580003404],[-96.93112999985085,32.88995400005976],[-96.9311559997901,32.89008700021413],[-96.93118000007956,32.890128000181754],[-96.93114800029251,32.890173000326755],[-96.93116400018603,32.89024800001479],[-96.93114300026964,
32.89028700018953],[-96.93112099963001,32.89038000024685],[-96.9310989998887,32.89047900010323],[-96.93106399972861,32.89053800032319],[-96.93103199994155,32.890586999683265],[-96.93101100002515,32.890658000355195],[-96.93097500004015,32.89072600027607],
[-96.93092399998653,32.890765999717026],[-96.93088899982644,32.89079400014471],[-96.93082100005437,32.890795999851655],[-96.93074300023656,32.89084700028351],[-96.93064899962691,32.89092800002159],[-96.93052599960325,32.89100699998348],[-96.93041699982331,
32.891028999721634],[-96.93034200037856,32.89105299990975],[-96.9302329997003,32.891074999636494],[-96.93013700033916,32.89109100025718],[-96.93005199995034,32.891112999974474],[-96.92994300017038,32.89112599990774],[-96.9298310000174,32.89115299999504],
[-96.92971499966644,32.89117100030012],[-96.9296200001302,32.89116199977088],[-96.92950200012943,32.89114899984295],[-96.92941300044097,32.89114800037063],[-96.9293520003416,32.891144000218304],[-96.92929399971698,32.89115199976844],[-96.92926699995279,
32.89115700014697],[-96.92923699981556,32.89114800037063],[-96.92918300028721,32.89114800037063],[-96.92912499966256,32.891132999987015],[-96.92904099999697,32.89112599990774],[-96.92891100030063,32.891138000366624],[-96.92873800004828,32.89113899983904],
[-96.92862000004749,32.89112599990774],[-96.92854800007747,32.89112499968083],[-96.92834399986299,32.891142999991594],[-96.92827299971786,32.89115599992046],[-96.92821499999154,32.89117299999856],[-96.9281410003717,32.891201999769315],[-96.92801699962482,
32.891221999761775],[-96.92790100017218,32.89128599985819],[-96.92785599996634,32.89131100020151],[-96.92782099980624,32.891358999664135],[-96.92778399999631,32.891379000375466],[-96.92773600031575,32.89139800010413],[-96.9275990000484,32.89147699964699],
[-96.92755700021561,32.891541999781346],[-96.92745299956022,32.89167300012768],[-96.9274080002527,32.891691999793295],[-96.927325000412,32.89178300019982],[-96.92724800041911,32.89191599987148],[-96.92722900015255,32.892033999866776],[-96.92716300003029,
32.89231600016487],[-96.927169999703,32.892481999990224],[-96.92718599959652,32.89276000029154],[-96.927169999703,32.892898000285356],[-96.92716700022827,32.89304400019781],[-96.9272049998631,32.89319299972603],[-96.92731299981813,32.89341799998154],
[-96.92744900026057,32.89361100009736],[-96.92766099997267,32.89386899972829],[-96.9277120000263,32.89394500025399],[-96.92785599996634,32.89418300034707],[-96.92789600014932,32.8942239999277],[-96.92805099996002,32.89430900035927],[-96.92814999969423,
32.894424999805025],[-96.92821099979358,32.894459999647],[-96.92828000028888,32.8945639996561],[-96.92827299971786,32.894624000360096],[-96.92827799974073,32.89471600020408],[-96.92833700019028,32.89480799995246],[-96.92836700032751,32.8948039999654],
[-96.92839099971863,32.89482200028294],[-96.92840400013743,32.89490800032493],[-96.92851999959008,32.89503599967145],[-96.92852200013822,32.89506000028264],[-96.92854700025256,32.89510600036728],[-96.92850399969653,32.895180000223775],[-96.92851000044263,
32.89522299970427],[-96.92849700002385,32.89526800027849],[-96.92851799994025,32.89535200028341],[-96.92854200022968,32.89539700003776],[-96.92853300000885,32.89543299967396],[-96.92853200018395,32.895590000367655],[-96.92853100035903,32.89569299962905],
[-96.92853100035903,32.895773000041935],[-96.92851299991737,32.895973000003735],[-96.92845199981801,32.89604299995911],[-96.92837300017528,32.89604000019918],[-96.92826699987008,32.8963449999082],[-96.92800999995214,32.89695200021804],[-96.92756600043643,
32.89742400033157],[-96.92707500016675,32.89761999972266],[-96.92644400015499,32.897658999669105],[-96.92504200038938,32.897580000359355],[-96.92406099967494,32.89752199970419],[-96.92345300012771,32.89752199970419],[-96.92291599982728,32.897658999669105],
[-96.92265499971136,32.89792299972506],[-96.92251900016724,32.89803200018439],[-96.92233199967117,32.89844400023815],[-96.92221500039363,32.898973999685765],[-96.92233199967117,32.89944500020491],[-96.922705999765,32.89964099964932],[-96.923150000179,
32.89975899991376],[-96.9235230004479,32.89961999991819],[-96.92396699996361,32.89926799987606],[-96.92485599971823,32.89892999962464],[-96.92564999993662,32.898973999685765],[-96.92639800012424,32.89934699994298],[-96.92677100039313,32.89966099999922],
[-96.92709899955788,32.90007300001783],[-96.92744800043567,32.90055100006152],[-96.92747000017697,32.90066400002617],[-96.9275299995531,32.90128699968552],[-96.92751899968246,32.90138100037346],[-96.9275000003142,32.90147699967323],[-96.92746299960595,
32.901575999949884],[-96.92741400010047,32.90165899989843],[-96.92731299981813,32.901803000242566],[-96.92683499996724,32.90242799963027],[-96.92681200040103,32.90246899991983],[-96.92679200030953,32.90254100021686],[-96.92678700028668,32.902590999823],
[-96.92679999980713,32.90262799964913],[-96.92670100007294,32.90275900019354],[-96.92660800018652,32.90305399997876],[-96.92665500004219,32.90360299987228],[-96.92684199963993,32.90399600036813],[-96.92709899955788,32.90454599977643],[-96.92756600043643,
32.90511400002807],[-96.928127000128,32.90550699985157],[-96.92901500005772,32.90584000034037],[-96.92994900001818,32.905996999932576],[-96.93083699994787,32.90644899978862],[-96.93151399999041,32.90690000030533],[-96.9316820002199,32.907092999702456],
[-96.93181299974114,32.90733400004324],[-96.93183100018283,32.90738199987319],[-96.93185100027429,32.907458000116314],[-96.93185299992412,32.90756099990511],[-96.93182299978689,32.90765900012743],[-96.93179799967253,32.90771800021666],[-96.93174699961892,
32.90779800032596],[-96.9316610003035,32.907891000098275],[-96.93163299981609,32.90791600027987],[-96.93152999988394,32.908014000109254],[-96.9314500004163,32.908082000281155],[-96.93138400029406,32.90816100002702],[-96.93130899995099,32.908296000059785],
[-96.93124299982875,32.90845399985338],[-96.93112200035326,32.908837999694306],[-96.93113200039899,32.9090030002044],[-96.93117300040686,32.90921900006458],[-96.93117300040686,32.90930399968002],[-96.931168000384,32.90934999990813],[-96.93115300031539,
32.9093839998646],[-96.93107499959926,32.909430000051145],[-96.93111300013241,32.90955800028042],[-96.93121699988949,32.909909000130554],[-96.93127899981377,32.91004699980011],[-96.93164899970961,32.91077299963416],[-96.93187499966544,32.91107799988577],
[-96.932006000085,32.911238999992925],[-96.93212200043594,32.91137199986058],[-96.93256199975369,32.911693000226414],[-96.93286300005258,32.91186699987479],[-96.93309700040429,32.91198799965842],[-96.93353599989713,32.912155000309696],[-96.93370699960134,
32.91220099981053],[-96.9338930002725,32.9122410001112],[-96.93483899992854,32.91232199989177],[-96.93497700002078,32.912327999816696],[-96.93542300008464,32.91235700020226],[-96.93601300008851,32.91241400020427],[-96.93628699972491,32.91244899972429],
[-96.93661599961287,32.912539999919794],[-96.93682900004819,32.91259299986626],[-96.93700099957732,32.91264999971638],[-96.9374330002958,32.912828999655254],[-96.93756999966482,32.912908999671],[-96.93777600042745,32.91301199990533],[-96.9379060001238,
32.913103000276216],[-96.93805699973653,32.91324100024578],[-96.93814600032331,32.91332799972257],[-96.93824099985954,32.91341499986799],[-96.93829100008827,32.91347299991743],[-96.93836499970811,32.913641999974864],[-96.93839400002041,32.913717000151316],
[-96.93846500016554,32.913894000255475],[-96.93849600012769,32.91398599968841],[-96.93850600017342,32.91405499976594],[-96.93852399971676,32.91426700025781],[-96.93850299980036,32.914433999626134],[-96.93846199979248,32.91452100019275],[-96.93842099978461,
32.91459599962448],[-96.93829699993606,32.91476299988032],[-96.93809799974443,32.91506200021965],[-96.93787900035962,32.91544700000639],[-96.93778300010015,32.915677999979565],[-96.93772700002364,32.915901999720596],[-96.93772700002364,32.9161140003134],
[-96.93773299987143,32.91632800028306],[-96.9377510003131,32.9164999999893],[-96.93776999968135,32.916583000276006],[-96.9378009996435,32.9166600000999],[-96.93789400042823,32.91683199991508],[-96.9380550000867,32.91710800007747],[-96.93829799976096,
32.91745099996505],[-96.93845400029488,32.91769599971728],[-96.93856300007484,32.91791400008394],[-96.93865599996126,32.91821899986175],[-96.93869399959607,32.91850400023711],[-96.9386790004258,32.91907199992018],[-96.93863300039504,32.91942099993532],
[-96.93851299984613,32.919834999810796],[-96.93839300019552,32.920162999695854],[-96.93821200044555,32.92054299968878],[-96.93813399972942,32.92075700026042],[-96.9381189996608,32.92091800010625],[-96.93811500036117,32.9211599996466],[-96.93812399968368,
32.921328000222104],[-96.93816700023972,32.92149100030511],[-96.93835399983746,32.92200600011179],[-96.93838999982246,32.92211399970133],[-96.93841800030988,32.92223800018462],[-96.93843900022627,32.9223870003592],[-96.93842400015765,32.92247800013997],
[-96.938413000287,32.92255599998527],[-96.93835100036273,32.92272199967863],[-96.93823599983668,32.92295300026898],[-96.93811199998812,32.92314600010729],[-96.93800800023105,32.923250000357434],[-96.93787299961352,32.92332900013951],[-96.93755799996924,
32.923461999937786],[-96.93704400013335,32.92372699983],[-96.93671600007029,32.92391600006213],[-96.93646199962707,32.92410300018178],[-96.93617100027225,32.92439100001233],[-96.9360199997612,32.924565000335456],[-96.93590099993553,32.9247490002962],
[-96.93585900010272,32.924918999780566],[-96.93586400012559,32.92507499962321],[-96.935921000027,32.92524099986911],[-96.9360199997612,32.925406999803585],[-96.93611400037084,32.92557599969395],[-96.93622800017367,32.925717000082805],[-96.93635299984713,
32.92584599996896],[-96.93651699987866,32.926000999852306],[-96.93675200005531,32.9262090003052],[-96.93691199988888,32.92637499993161],[-96.93705199963097,32.92656299995906],[-96.93715700011126,32.926735000131565],[-96.93724199960175,32.92689499983398],
[-96.9373279998155,32.92707000033184],[-96.93738499971688,32.92721700027142],[-96.93744300034153,32.92738599972061],[-96.93746000005997,32.927483999860094],[-96.93746400025793,32.92757300004659],[-96.93746599990774,32.92760500015956],[-96.93745199966403,
32.927735000122404],[-96.93741599967905,32.927832000063],[-96.9373429998841,32.92793399970707],[-96.93727799958677,32.92799500022904],[-96.93720700033997,32.92802899980948],[-96.93712600014912,32.92806099975746],[-96.93702300021695,32.928078000290675],
[-96.93690500021617,32.92808399990148],[-96.93680899995672,32.9280550001451],[-96.93671500024539,32.92800800002577],[-96.9365600004347,32.927865999706135],[-96.93617200009717,32.927544999938256],[-96.93601599956324,32.9274460000497],[-96.93587199962319,
32.927373999649866],[-96.93570199974388,32.92732500028679],[-96.93555100013116,32.927297999918316],[-96.93544700037407,32.92728900004499],[-96.93532600000026,32.92729200025421],[-96.93509300037175,32.92732299989675],[-96.93483899992854,32.927379000245075],
[-96.9345970000792,32.92745000007021],[-96.93429400013049,32.927548000138785],[-96.93403100036475,32.927645000284464],[-96.93382499960212,32.92774300013705],[-96.9336389998293,32.92785299988849],[-96.93351699963054,32.927940000081655],[-96.93337400041374,
32.928056999764635],[-96.9332179998798,32.928198999777685],[-96.93310200042717,32.92833000018241],[-96.93302999955883,32.92843800034715],[-96.9329569997639,32.92860699972597],[-96.93295400028916,32.928721999676355],[-96.93297000018269,32.928841000188896],
[-96.93300799981753,32.92898999980024],[-96.93308499981042,32.92918099969412],[-96.9331609999784,32.92931799967982],[-96.93323700014636,32.929431999665766],[-96.93329800024574,32.92951000016678],[-96.93338000026151,32.92958399992123],[-96.93348999986637,
32.92966099974265],[-96.93365100042317,32.929742999958606],[-96.93390499996806,32.929839999959526],[-96.93415500021332,32.9299070001624],[-96.93437299977322,32.929949000331206],[-96.93452099991121,32.92996800007789],[-96.93468800031579,32.929971999984375],
[-96.93583599963819,32.929957000145706],[-96.93598799997415,32.929965999747616],[-96.93615899967838,32.929993000055845],[-96.93631600003721,32.93003100028019],[-96.93644599973355,32.93008400030794],[-96.93703400008762,32.930339999653334],[-96.93856300007484,
32.93107799998177],[-96.93943699976083,32.93154500026386],[-96.93993600042644,32.931862000022505],[-96.94013200024501,32.932023999784015],[-96.94014899996345,32.93203800026142],[-96.94021400026078,32.932115999972616],[-96.94027399963691,32.9322170001924],
[-96.94030700014721,32.93232200009705],[-96.94033700028443,32.932567999902666],[-96.94032899988851,32.93286800015568],[-96.94030200012433,32.93300000018594],[-96.94024900042088,32.93320599975956],[-96.94018199957542,32.933407999856534],[-96.94012800004705,
32.933542999832135],[-96.93994999977183,32.93390600025252],[-96.93970299989962,32.93429799991829],[-96.93944400033185,32.93466599968525],[-96.93935899994304,32.93477599987565],[-96.93924799961493,32.93489900022123],[-96.93910500039814,32.9350230001268],
[-96.93896700030587,32.93513200014342],[-96.93883300041156,32.93522199990374],[-96.93866299963393,32.93530799990746],[-96.93855100037926,32.935352999709494],[-96.9383859996245,32.93540199990354],[-96.93817100043768,32.93544699965774],[-96.93799300016244,
32.935456999935134],[-96.9378009996435,32.93543499992657],[-96.9376879996656,32.93540799977156],[-96.9374769997784,32.935352999709494],[-96.93700700032345,32.935187000342914],[-96.93656499955924,32.93498999995004],[-96.93618399979275,32.93483499998311],
[-96.93579299998048,32.93471300003696],[-96.93569800044423,32.9347029996755],[-96.93559799998681,32.93470799985637],[-96.93549500005466,32.93473699969359],[-96.93540899984092,32.93477800009716],[-96.93532099997738,32.9348320000297],[-96.93527199957357,
32.93488299997757],[-96.93522600044113,32.934947000181005],[-96.93518700008308,32.935000000279054],[-96.93515600012094,32.93507399996452],[-96.93519200010596,32.93520499998954],[-96.9351899995578,32.93564300006272],[-96.93517799986225,32.93627499979488],
[-96.9351820000602,32.93646200017868],[-96.93519600030392,32.9366780001219],[-96.9352449998094,32.937044000371145],[-96.93543700032833,32.93706599997949],[-96.9355190003441,32.93706899985712],[-96.93557600024552,32.93705300000595],[-96.93562200027627,
32.93701900012423],[-96.93565400006331,32.936973999661966],[-96.93567699962952,32.93684500017016],[-96.9357029995688,32.93677700023372],[-96.93575500034565,32.93672099980332],[-96.93583900001123,32.936696999931094],[-96.93592500022496,32.936686999793956],
[-96.93601700028647,32.936696999931094],[-96.93617000044736,32.93674300024588],[-96.93625999996073,32.93679699973261],[-96.9365679999323,32.93711799985432],[-96.936722999743,32.937255000364175],[-96.93682999987311,32.93733399970322],[-96.93692100010972,
32.93737600011521],[-96.93721499983756,32.937465999853806],[-96.93746699973265,32.93749199967749],[-96.93750600009072,32.9375080002031],[-96.93754500044878,32.93754999977852],[-96.93755299994638,32.93760900029723],[-96.93754899974842,32.937663000009124],
[-96.93753700005286,32.93772800016311],[-96.93751399958832,32.937783999955876],[-96.93744800036438,32.93786900003126],[-96.93741700040225,32.937931000185564],[-96.93742499989986,32.938006000131686],[-96.93746300043301,32.93805500036368],[-96.93752199998423,
32.938090000297414],[-96.93758399990853,32.9381000002759],[-96.93764099980993,32.938086999700495],[-96.93769600006151,32.93804199978166],[-96.93776600038171,32.93791100018918],[-96.93781999991008,32.9376659998665],[-96.93784900022239,32.937427000103995],
[-96.93788600003232,32.93732200022807],[-96.93794399975863,32.93723800008681],[-96.93802199957643,32.93719600036324],[-96.93811500036117,32.937169999698654],[-96.93820400004962,32.937169999698654],[-96.93830100013402,32.937187999695595],[-96.93835899986033,
32.9372239996786],[-96.93837099955589,32.93729600035447],[-96.93833200009615,32.93735800015653],[-96.93826599997391,32.937422999780736],[-96.93819200035408,32.93747899976663],[-96.93816899988953,32.93754400005579],[-96.9381809995851,32.93760900029723],
[-96.93821900011824,32.93765399968246],[-96.93827400036984,32.9376800002048],[-96.93834700016477,32.93769300008611],[-96.93845599994471,32.937685999918294],[-96.93864199971753,32.93769000022965],[-96.93884799958187,32.937725000307836],[-96.93892299992494,
32.937730000317856],[-96.93900300029088,32.93771000027601],[-96.93911299989574,32.937652000279925],[-96.93920599978215,32.93762099973345],[-96.93931799993516,32.93758999993005],[-96.93944599998166,32.9375949999477],[-96.93955099956366,32.93762400034619],
[-96.93965199984599,32.93769899979873],[-96.9397370002348,32.93779999967472],[-96.93986100008337,32.93803399994448],[-96.93991499961172,32.93809099999377],[-96.94006600012278,32.93818400035236],[-96.94015900000919,32.9382179997862],[-96.9403919996377,
32.938281000143895],[-96.94090700019683,32.93835000012521],[-96.94099300041056,32.938372000162545],[-96.94107799990104,32.938407999663525],[-96.94121000014553,32.938482000267136],[-96.94134499986475,32.938571999634135],[-96.94154099968331,32.938833999682444],
[-96.94159799958473,32.93892099963044],[-96.94167499957763,32.93913399979169],[-96.9416939998442,32.93929700024109],[-96.94177099983709,32.93994399990345],[-96.9418419999822,32.940539999683594],[-96.94191700032526,32.94117100019226],[-96.94197000002872,
32.94161800004416],[-96.94208399983154,32.9425660002414],[-96.9421519996036,32.94313300035213],[-96.94216500002238,32.943244000203485],[-96.94222000027398,32.943485999735984],[-96.94224299984019,32.94358699978732],[-96.94229700026688,32.94372299968907],
[-96.94233300025188,32.94401800014286],[-96.94236500003895,32.94418099988195],[-96.94236000001607,32.94428399989978],[-96.94234599977236,32.944644999959166],[-96.94240199984885,32.944726999852804],[-96.94251900002472,32.94486100026925],[-96.94254800033704,
32.94510099991111],[-96.94258000012408,32.94527799980446],[-96.94253099972029,32.94534000004105],[-96.94245999957516,32.945361000232914],[-96.94245499955231,32.94549800003396],[-96.94246999962093,32.94582900009144],[-96.94252700042065,32.946157000094296],
[-96.94269700029997,32.94638799979583],[-96.94293800032438,32.94674499965508],[-96.94325399979355,32.94706199996245],[-96.94356000011531,32.947275999705575],[-96.94385800004113,32.947459000325615],[-96.94415900034002,32.94759200002771],[-96.94440600021223,
32.94767800006294],[-96.94474199977289,32.94784499969088],[-96.94490900017747,32.94792099985945],[-96.94508400007966,32.94796600002764],[-96.94527499987537,32.947984999673004],[-96.9454809997397,32.947991999779354],[-96.94601399984217,32.94792099985945],
[-96.94608300033745,32.94791899993521],[-96.94650099991388,32.947909000313246],[-96.94679800001481,32.94794699962439],[-96.94715600021509,32.948029000224636],[-96.94773799982305,32.9480920003768],[-96.94826300042793,32.94816899991543],[-96.94863199960055,
32.94817499967104],[-96.94909199990809,32.948071000079786],[-96.94929500029767,32.948071000079786],[-96.95029700003019,32.948395999809684],[-96.95056800019185,32.948445999894076],[-96.95145799977139,32.94888900009964],[-96.9519449998431,32.94904699978047],
[-96.95231999976183,32.94912299966951],[-96.95268100033516,32.94931300023702],[-96.95325000042266,32.94980999969887],[-96.95365399975537,32.95006200023763],[-96.95407300005502,32.9501639998746],[-96.95498699992402,32.95031099987593],[-96.95533799955328,
32.95039400010201],[-96.95555099998863,32.950457000076305],[-96.95564300005013,32.950477000250196],[-96.95600100025042,32.95050199970738],[-96.95634299965886,32.95048999975774],[-96.95670099985915,32.950438999765204],[-96.95708199962566,32.95035600033516],
[-96.9575469999561,32.95031099987593],[-96.95782899998838,32.950233999941624],[-96.95801399993631,32.950240999869884],[-96.95825499996073,32.950285000052446],[-96.95851400042682,32.95022800032571],[-96.95874299985738,32.95019600010595],[-96.95891100008686,
32.95020899965482],[-96.95907099992043,32.95022800032571],[-96.95934799992985,32.95029000010607],[-96.95940599965618,32.95030399995323],[-96.95955799999214,32.95034899966218],[-96.95967199979495,32.9503669999916],[-96.95974799996294,32.95035600033516],
[-96.95983199962853,32.95032999977107],[-96.95987799965928,32.950285000052446],[-96.9599079997965,32.950245999926],[-96.95995399982725,32.950144999943724],[-96.96002300032256,32.94996600011712],[-96.96010699998814,32.94979899997306],[-96.96012899972945,
32.94976799991615],[-96.9601749997602,32.94971599994209],[-96.96020599972233,32.949691000262625],[-96.9602659999968,32.94967200023013],[-96.96057899999126,32.94960100015186],[-96.96080599977196,32.94951700036782],[-96.96096599960553,32.94944100006373],
[-96.96108799980426,32.94933900034635],[-96.96119499993439,32.949275000005414],[-96.96130899973721,32.949229999749726],[-96.96162099990674,32.949134999804706],[-96.96177400006762,32.949122000097894],[-96.96189600026635,32.94918000010876],[-96.9619640000384,
32.949383999792715],[-96.962047999704,32.949575999686026],[-96.96222199978128,32.94977199968091],[-96.962420000148,32.94989700015451],[-96.96254999984434,32.94996900031088],[-96.96271899989874,32.950028999642626],[-96.9628219998309,32.950055000295194],
[-96.9629490000525,32.95007299993071],[-96.96302199984744,32.950093999752134],[-96.96308899979458,32.95012499969471],[-96.963145999696,32.95016700006163],[-96.96523000042532,32.951810000281235],[-96.96585899988895,32.95237500008007],[-96.96625800009711,
32.952709000118425],[-96.96823499979797,32.952728000251916],[-96.96824400001881,32.95222299979819],[-96.9691009999864,32.95221799985391],[-96.97002200042638,32.95221299990934],[-96.97002200042638,32.95213600012425],[-96.97002200042638,32.95173600027891],
[-96.97007099993186,32.94952300003199],[-96.97005699968815,32.94952199971111],[-96.97006500008408,32.949425000189734],[-96.97006500008408,32.94915500027771],[-96.96898700018357,32.947525999996515],[-96.96846199957871,32.94750500031889],[-96.96832299966154,
32.947500000107745],[-96.96810299955351,32.94750200004145],[-96.96756899962612,32.94747699973587],[-96.96762999972549,32.9414860000599],[-96.96761300000706,32.939689000137925],[-96.96764700034224,32.93873899987551],[-96.96749500000628,32.935516000342226],
[-96.9676520003651,32.92732100026063],[-96.96765599966474,32.92714899971934],[-96.96770699971839,32.925344000078574],[-96.96789199966632,32.92533099989042],[-96.96821300005668,32.92533099989042],[-96.96853600009686,32.92533099989042],[-96.96992600016692,
32.925367000174866],[-96.97210399970923,32.92542400009267],[-96.97238200044191,32.925430999722884],[-96.9725020000925,32.9254399997852],[-96.97311200018787,32.92544800000742],[-96.9737409996515,32.92545799990709],[-96.97549800014266,32.92549400013993],
[-96.97845200036002,32.925587000170914],[-96.97849800039077,32.92558800000852],[-96.98168799971137,32.92566600012853],[-96.98205000010962,32.92567699984021],[-96.98404000022929,32.92569599975032],[-96.98501900039561,32.925706000376046],[-96.98638299962806,
32.925708999884904],[-96.98766100044342,32.92571299998394],[-96.99052199987607,32.925717000082805],[-96.99058600034849,32.925717999918945],[-96.99137200017094,32.92571899975512],[-96.99144999998875,32.925720000345336],[-96.99231500035222,32.92573100005029],
[-96.993531000345,32.92572100018143],[-96.99370299987413,32.92571399982019],[-96.99370399969904,32.92552299998171],[-96.99375099955472,32.92453899972822],[-96.99378200041517,32.9237030002025],[-96.99377400001924,32.92318400025635],[-96.99378200041517,
32.92260700022403],[-96.99439699963509,32.9227980003246],[-96.99505699995916,32.92293899986195],[-96.99565399963575,32.923124000053214],[-96.9964450003794,32.92339199979103],[-96.99719100001887,32.923688000055016],[-96.99785299999279,32.92408999981123],
[-96.99847800015677,32.924553999731486],[-96.99940600026946,32.925344999918984],[-96.99996699996102,32.92586499984278],[-97.00043700031428,32.92617000011618],[-97.00120600041832,32.926748000113435],[-97.00178399982832,32.92724200027275],[-97.00230000021236,
32.92770300005645],[-97.00285400023122,32.928229000048695],[-97.00308100001195,32.92846099963909],[-97.00404000008677,32.929543999919],[-97.00537400008031,32.93109700023991],[-97.00771900002721,32.93383600007552],[-97.0078520000966,32.93399299977056],
[-97.00814400017465,32.93436499976042],[-97.00821600014469,32.93446499993673],[-97.00828399991674,32.934550000186185],[-97.0083430003663,32.934613999876625],[-97.00852800031421,32.934851999968416],[-97.00879799975264,32.93518899980117],[-97.01191799965136,
32.93890900037061],[-97.01244699955586,32.93952599965722],[-97.01298100038157,32.94010899971469],[-97.01342400007235,32.94056899987019],[-97.01398899996188,32.941073000138594],[-97.01443800039877,32.94143900029211],[-97.01466799965421,32.94165000035334],
[-97.01488299973937,32.941819999775646],[-97.01539699957529,32.942189000310634],[-97.01590399973847,32.94252699972521],[-97.01657900013119,32.94292899981358],[-97.01704399956327,32.943194000192605],[-97.01783100010896,32.94362700022362],[-97.0214809997371,
32.94378100022657],[-97.02224700036639,32.94381400013849],[-97.0224170002457,32.94381000010411],[-97.02254399956898,32.94380699970133],[-97.02269599990495,32.9438060000696],[-97.0228130000808,32.9438060000696],[-97.02303200036393,32.94381000010411],
[-97.02374200001842,32.9438300002741],[-97.02435799996157,32.94385799975055],[-97.02450699992448,32.94386100015166],[-97.02470799976594,32.94386500018373],[-97.02499099962314,32.94386300016769],[-97.02527900040155,32.94387199986242],[-97.0256490002974,
32.943869000215564],[-97.02705100006301,32.94389899969493],[-97.02924500039718,32.943930999932505],[-97.03185399993473,32.9438559997344],[-97.03190599981326,32.943867000199674],[-97.03190800036141,32.943795999982484],[-97.03195900041503,32.940923999771975],
[-97.03201799996627,32.93768099990578],[-97.03208599973834,32.93375699987386],[-97.03214699983769,32.930408999797834],[-97.03215199986057,32.93021800029329],[-97.03217100012714,32.92924299990652],[-97.03217000030224,32.92908799967096],[-97.03221200013503,
32.92701700000648],[-97.03223600042448,32.925717999918945],[-97.0322370002494,32.925592000113035],[-97.0323290003109,32.920616000262584],[-97.03233400033375,32.92016700004561],[-97.03235900044811,32.91899200019597],[-97.0326249996886,32.90428899964708],
[-97.03308800036916,32.8792149999786],[-97.03308800036916,32.87849300019781],[-97.03308800036916,32.87832000023377],[-97.03309500004187,32.87656799982416],[-97.03310000006474,32.876315000072665],[-97.03311900033131,32.87532099963398],[-97.03315799979106,
32.87327799987266],[-97.03321600041569,32.870736000261125],[-97.03321999971533,32.87057100014786],[-97.0333159999748,32.8663099999621],[-97.0334080000363,32.86218900014499],[-97.03341100040936,32.86199799986884],[-97.03357399971766,32.85289899965761],
[-97.03357700009072,32.85275300002886],[-97.03383999985645,32.838531999906905],[-97.0338449998793,32.83816800023499],[-97.0338509997271,32.83764900034657],[-97.03385400010015,32.837567000162245],[-97.03385400010015,32.83741499974917],[-97.03385699957488,
32.8371340000134],[-97.03385999994794,32.836949999973086],[-97.03386199959775,32.83650799979484],[-97.03386599979571,32.83637000033687],[-97.03386800034384,32.836056000256846],[-97.03390400032886,32.83428999971111],[-97.03402399997945,32.82786099969901],
[-97.0340270003525,32.82777900028832],[-97.03413000028466,32.82230600010043],[-97.03413799978227,32.82206700009065],[-97.0342020002547,32.81827200027167]]]},"properties":{"GEOID":"4837000","STATE":"48","PLACE":"37000","NAME":"Irving city","BASENAME":"Irving",
"AREALAND":173582569,"AREAWATER":2568680}}
