{"type":"Feature","geometry":{"type":"Polygon","coordinates":[[[-97.03187900004909,32.94550599994975],[-97.03190599981326,32.943867000199674],[-97.03185399993473,32.9438559997344],[-97.02924500039718,32.943930999932505],[-97.02705100006301,
32.94389899969493],[-97.0256490002974,32.943869000215564],[-97.02527900040155,32.94387199986242],[-97.02499099962314,32.94386300016769],[-97.02470799976594,32.94386500018373],[-97.02450699992448,32.94386100015166],[-97.02435799996157,32.94385799975055],
[-97.02374200001842,32.9438300002741],[-97.02303200036393,32.94381000010411],[-97.0228130000808,32.9438060000696],[-97.02269599990495,32.9438060000696],[-97.02254399956898,32.94380699970133],[-97.0224170002457,32.94381000010411],[-97.02224700036639,
32.94381400013849],[-97.0214809997371,32.94378100022657],[-97.01783100010896,32.94362700022362],[-97.01704399956327,32.943194000192605],[-97.01657900013119,32.94292899981358],[-97.01590399973847,32.94252699972521],[-97.01539699957529,32.942189000310634],
[-97.01488299973937,32.941819999775646],[-97.01466799965421,32.94165000035334],[-97.01443800039877,32.94143900029211],[-97.01398899996188,32.941073000138594],[-97.01342400007235,32.94056899987019],[-97.01298100038157,32.94010899971469],[-97.01244699955586,
32.93952599965722],[-97.01191799965136,32.93890900037061],[-97.00879799975264,32.93518899980117],[-97.00852800031421,32.934851999968416],[-97.0083430003663,32.934613999876625],[-97.00828399991674,32.934550000186185],[-97.00821600014469,32.93446499993673],
[-97.00814400017465,32.93436499976042],[-97.0078520000966,32.93399299977056],[-97.00771900002721,32.93383600007552],[-97.00537400008031,32.93109700023991],[-97.00404000008677,32.929543999919],[-97.00308100001195,32.92846099963909],[-97.00285400023122,
32.928229000048695],[-97.00230000021236,32.92770300005645],[-97.00178399982832,32.92724200027275],[-97.00120600041832,32.926748000113435],[-97.00043700031428,32.92617000011618],[-96.99996699996102,32.92586499984278],[-96.99940600026946,32.925344999918984],
[-96.99847800015677,32.924553999731486],[-96.99785299999279,32.92408999981123],[-96.99719100001887,32.923688000055016],[-96.9964450003794,32.92339199979103],[-96.99565399963575,32.923124000053214],[-96.99505699995916,32.92293899986195],[-96.99439699963509,
32.9227980003246],[-96.99378200041517,32.92260700022403],[-96.99377400001924,32.92318400025635],[-96.99378200041517,32.9237030002025],[-96.99375099955472,32.92453899972822],[-96.99370399969904,32.92552299998171],[-96.99370299987413,32.92571399982019],
[-96.993531000345,32.92572100018143],[-96.99231500035222,32.92573100005029],[-96.99144999998875,32.925720000345336],[-96.99140800015596,32.92995099990793],[-96.9913980001102,32.931026000325744],[-96.9913910004375,32.93122599982136],[-96.99351999957602,
32.931248999896454],[-96.99351299990333,32.93183200022958],[-96.9935029998576,32.932661999794824],[-96.99346600004768,32.9352229996325],[-96.9934679996975,32.936897000175],[-96.99347000024562,32.93884999996525],[-96.99345500017702,32.93916299968545],
[-96.9934610000248,32.93994600000808],[-96.99347500026852,32.941633000167],[-96.99347500026852,32.942926000134754],[-96.9934610000248,32.94372499970829],[-96.99343300043572,32.944010000092426],[-96.99344000010841,32.9442939999317],[-96.99185900024266,
32.94433899968449],[-96.99176200015827,32.944386999797615],[-96.99171399957939,32.944442999896616],[-96.99169000018824,32.9445389999839],[-96.99166599989881,32.945126000134785],[-96.99166199970085,32.94754400014692],[-96.99166199970085,32.94770799975752],
[-96.990778999794,32.94770199997023],[-96.99044400005825,32.94767600013322],[-96.9899839997507,32.94767000034369],[-96.98959200011355,32.94767600013322],[-96.9892580002027,32.94767600013322],[-96.98874099999375,32.94768300026404],[-96.98850699964201,
32.94770799975752],[-96.98838100014363,32.94772700021219],[-96.98805899992837,32.947771000138445],[-96.98775599997965,32.94784700037063],[-96.98746599955146,32.947935000081735],[-96.98716299960273,32.948029999808625],[-96.9868789999206,32.94816199982305],
[-96.98653199959098,32.94833299987423],[-96.98626100032764,32.94849700028262],[-96.9860400003947,32.94865400033338],[-96.98578099992862,32.9488629998579],[-96.9855540001479,32.94906400004897],[-96.9851950001227,32.949456000366986],[-96.98498599988532,
32.94975200010134],[-96.98477199962508,32.950048999913356],[-96.98462000018743,32.95029300028888],[-96.98441900034598,32.950560000320436],[-96.9842169997813,32.95087499990506],[-96.98398300032788,32.951178000018565],[-96.98377499991543,32.95148099984725],
[-96.9835349997159,32.95171399979769],[-96.98328899966862,32.95196100022617],[-96.98267100007564,32.952452999944676],[-96.9825699997933,32.952522000173445],[-96.98217200030835,32.952749000196334],[-96.98182499997871,32.95290100032745],[-96.98157899993141,
32.95302100024631],[-96.98094200007189,32.953266999759066],[-96.97913000022746,32.953872999885014],[-96.97927699964222,32.95412899971476],[-96.97923599963434,32.954137999872],[-96.97678699993035,32.95499400033194],[-96.97671800033338,32.95500999995168],
[-96.9765929997616,32.95504000017301],[-96.97507700019317,32.95555600012509],[-96.974818999552,32.95563700019896],[-96.97463600015222,32.9556850002077],[-96.97440599999844,32.95573699968522],[-96.97417199964673,32.95577899964681],[-96.97397300035341,
32.955808000111084],[-96.97377300033686,32.955829000077536],[-96.97354900003087,32.95584500029982],[-96.97337999997647,32.95585100028819],[-96.97313700030223,32.95585100028819],[-96.97288299985901,32.955839999806656],[-96.9726920000633,32.95582400033723],
[-96.97253499970446,32.9558060003653],[-96.97235899997736,32.95578100014699],[-96.97213899986934,32.95574200018422],[-96.97194399987568,32.955700000205105],[-96.97168000028503,32.955631000196],[-96.96924599975135,32.954913999928685],[-96.96822099955428,
32.95461300033478],[-96.96822300010243,32.954504999722225],[-96.96821999972938,32.95430300033003],[-96.96821999972938,32.95423599976546],[-96.96822300010243,32.95394700035954],[-96.96788599981852,32.953864999972595],[-96.96774899955118,32.95381600021064],
[-96.96764599961901,32.9537220001913],[-96.96752500014351,32.95364299966472],[-96.9673560000891,32.953584000045936],[-96.96723100041564,32.95352200031466],[-96.96625800009711,32.952709000118425],[-96.96585899988895,32.95237500008007],[-96.96523000042532,
32.951810000281235],[-96.963145999696,32.95016700006163],[-96.96308899979458,32.95012499969471],[-96.96302199984744,32.950093999752134],[-96.9629490000525,32.95007299993071],[-96.9628219998309,32.950055000295194],[-96.96271899989874,32.950028999642626],
[-96.96254999984434,32.94996900031088],[-96.962420000148,32.94989700015451],[-96.96222199978128,32.94977199968091],[-96.962047999704,32.949575999686026],[-96.9619640000384,32.949383999792715],[-96.96189600026635,32.94918000010876],[-96.96177400006762,
32.949122000097894],[-96.96162099990674,32.949134999804706],[-96.96130899973721,32.949229999749726],[-96.96119499993439,32.949275000005414],[-96.96108799980426,32.94933900034635],[-96.96096599960553,32.94944100006373],[-96.96080599977196,32.94951700036782],
[-96.96057899999126,32.94960100015186],[-96.9602659999968,32.94967200023013],[-96.96020599972233,32.949691000262625],[-96.9601749997602,32.94971599994209],[-96.96012899972945,32.94976799991615],[-96.96010699998814,32.94979899997306],[-96.96002300032256,
32.94996600011712],[-96.95995399982725,32.950144999943724],[-96.9599079997965,32.950245999926],[-96.95987799965928,32.950285000052446],[-96.95983199962853,32.95032999977107],[-96.95974799996294,32.95035600033516],[-96.95967199979495,32.9503669999916],
[-96.95955799999214,32.95034899966218],[-96.95940599965618,32.95030399995323],[-96.95934799992985,32.95029000010607],[-96.95907099992043,32.95022800032571],[-96.95891100008686,32.95020899965482],[-96.95874299985738,32.95019600010595],[-96.95851400042682,
32.95022800032571],[-96.95825499996073,32.950285000052446],[-96.95801399993631,32.950240999869884],[-96.95782899998838,32.950233999941624],[-96.9575469999561,32.95031099987593],[-96.95708199962566,32.95035600033516],[-96.95670099985915,32.950438999765204],
[-96.95634299965886,32.95048999975774],[-96.95600100025042,32.95050199970738],[-96.95564300005013,32.950477000250196],[-96.95555099998863,32.950457000076305],[-96.95533799955328,32.95039400010201],[-96.95498699992402,32.95031099987593],[-96.95407300005502,
32.9501639998746],[-96.95365399975537,32.95006200023763],[-96.95325000042266,32.94980999969887],[-96.95268100033516,32.94931300023702],[-96.95231999976183,32.94912299966951],[-96.9519449998431,32.94904699978047],[-96.95145799977139,32.94888900009964],
[-96.95056800019185,32.948445999894076],[-96.95029700003019,32.948395999809684],[-96.94929500029767,32.948071000079786],[-96.94909199990809,32.948071000079786],[-96.94863199960055,32.94817499967104],[-96.94826300042793,32.94816899991543],[-96.94773799982305,
32.9480920003768],[-96.94715600021509,32.948029000224636],[-96.94679800001481,32.94794699962439],[-96.94650099991388,32.947909000313246],[-96.94608300033745,32.94791899993521],[-96.94601399984217,32.94792099985945],[-96.9454809997397,32.947991999779354],
[-96.94527499987537,32.947984999673004],[-96.94508400007966,32.94796600002764],[-96.94490900017747,32.94792099985945],[-96.94474199977289,32.94784499969088],[-96.94440600021223,32.94767800006294],[-96.94415900034002,32.94759200002771],[-96.94385800004113,
32.947459000325615],[-96.94356000011531,32.947275999705575],[-96.94325399979355,32.94706199996245],[-96.94293800032438,32.94674499965508],[-96.94269700029997,32.94638799979583],[-96.94252700042065,32.946157000094296],[-96.94246999962093,32.94582900009144],
[-96.94245499955231,32.94549800003396],[-96.94245999957516,32.945361000232914],[-96.94253099972029,32.94534000004105],[-96.94258000012408,32.94527799980446],[-96.94254800033704,32.94510099991111],[-96.94251900002472,32.94486100026925],[-96.94240199984885,
32.944726999852804],[-96.94234599977236,32.944644999959166],[-96.94236000001607,32.94428399989978],[-96.94236500003895,32.94418099988195],[-96.94233300025188,32.94401800014286],[-96.94229700026688,32.94372299968907],[-96.94224299984019,32.94358699978732],
[-96.94222000027398,32.943485999735984],[-96.94216500002238,32.943244000203485],[-96.9421519996036,32.94313300035213],[-96.94208399983154,32.9425660002414],[-96.94197000002872,32.94161800004416],[-96.94191700032526,32.94117100019226],[-96.9418419999822,
32.940539999683594],[-96.94177099983709,32.93994399990345],[-96.9416939998442,32.93929700024109],[-96.94167499957763,32.93913399979169],[-96.94159799958473,32.93892099963044],[-96.94154099968331,32.938833999682444],[-96.94134499986475,32.938571999634135],
[-96.94121000014553,32.938482000267136],[-96.94107799990104,32.938407999663525],[-96.94099300041056,32.938372000162545],[-96.94090700019683,32.93835000012521],[-96.9403919996377,32.938281000143895],[-96.94015900000919,32.9382179997862],[-96.94006600012278,
32.93818400035236],[-96.93991499961172,32.93809099999377],[-96.93986100008337,32.93803399994448],[-96.9397370002348,32.93779999967472],[-96.93965199984599,32.93769899979873],[-96.93955099956366,32.93762400034619],[-96.93944599998166,32.9375949999477],
[-96.93931799993516,32.93758999993005],[-96.93920599978215,32.93762099973345],[-96.93911299989574,32.937652000279925],[-96.93900300029088,32.93771000027601],[-96.93892299992494,32.937730000317856],[-96.93884799958187,32.937725000307836],[-96.93864199971753,
32.93769000022965],[-96.93845599994471,32.937685999918294],[-96.93834700016477,32.93769300008611],[-96.93827400036984,32.9376800002048],[-96.93821900011824,32.93765399968246],[-96.9381809995851,32.93760900029723],[-96.93816899988953,32.93754400005579],
[-96.93819200035408,32.93747899976663],[-96.93826599997391,32.937422999780736],[-96.93833200009615,32.93735800015653],[-96.93837099955589,32.93729600035447],[-96.93835899986033,32.9372239996786],[-96.93830100013402,32.937187999695595],[-96.93820400004962,
32.937169999698654],[-96.93811500036117,32.937169999698654],[-96.93802199957643,32.93719600036324],[-96.93794399975863,32.93723800008681],[-96.93788600003232,32.93732200022807],[-96.93784900022239,32.937427000103995],[-96.93781999991008,32.9376659998665],
[-96.93776600038171,32.93791100018918],[-96.93774999958987,32.938212000108805],[-96.93734500043222,32.93851100037476],[-96.93643700041103,32.93851100037476],[-96.93472099992775,32.93851299975788],[-96.93465499980553,32.93858300000284],[-96.93442999967462,
32.93880499968079],[-96.93421200011473,32.939027999995005],[-96.93412300042627,32.93913000029952],[-96.93403800003746,32.93924200033575],[-96.93392500005953,32.93945199992715],[-96.93353099987425,32.940101999738104],[-96.93339500033014,32.94028799989732],
[-96.93329200039797,32.940399000304566],[-96.93316500017636,32.94052399970656],[-96.93302200006123,32.9406799999247],[-96.93290999990823,32.94081200035823],[-96.93281199999895,32.940941999758735],[-96.9327669997931,32.941026000151226],[-96.93274000002891,
32.94112200017901],[-96.93272699961013,32.94121699968765],[-96.93272800033336,32.94133300024281],[-96.93276799961801,32.941580000274485],[-96.93280899962589,32.94171899996761],[-96.93286200022766,32.9418389999879],[-96.93292900017481,32.94195800019277],
[-96.93300899964242,32.942075000181006],[-96.93312199962034,32.9421859998528],[-96.93335699979697,32.94239899968852],[-96.93349599971415,32.94253999964788],[-96.9335760000801,32.94266400014819],[-96.93366099957058,32.94282100000317],[-96.93370499995152,
32.94295199986092],[-96.93377500027172,32.94325999968835],[-96.93382799997518,32.94363399992115],[-96.93386099958714,32.944071000081756],[-96.93385999976222,32.94429900032418],[-96.93403800003746,32.94478299973652],[-96.93427599968882,32.94528100015732],
[-96.93439700006266,32.94550999990741],[-96.93449699962177,32.94574600010234],[-96.93463100041438,32.94600099973908],[-96.93515600012094,32.94702899975512],[-96.93520799999948,32.947121000165296],[-96.93534199989377,32.94727300017422],[-96.93542399990955,
32.94733099989057],[-96.93557600024552,32.94739300019506],[-96.93573199988111,32.947428999792635],[-96.93588800041503,32.94743999981334],[-96.93661999981083,32.947334999765594],[-96.93684900013969,32.94732399973188],[-96.9371179997532,32.947345999797996],
[-96.93745599986201,32.94742600026653],[-96.9378149998872,32.947577999751054],[-96.93823099981381,32.947771000138445],[-96.93853499958743,32.94797100021243],[-96.93880300027435,32.94817499967104],[-96.93900699959053,32.94839700014336],[-96.93921900020095,
32.948644000040765],[-96.93940999999666,32.94888700019725],[-96.93949200001242,32.949058000353695],[-96.93955700030975,32.94920400036211],[-96.93959599976951,32.949395999892545],[-96.93960900018828,32.949589000079925],[-96.93959599976951,32.94973800016681],
[-96.93959199957153,32.94991299994308],[-96.93954399989096,32.95007299993071],[-96.93945699985233,32.95025700034995],[-96.9392579996607,32.950521999871086],[-96.93908500030665,32.950773999887716],[-96.93894999968911,32.95100900004853],[-96.93890700003142,
32.95114100013751],[-96.93887699989419,32.95134799996578],[-96.93887699989419,32.95150099978945],[-96.93884699975696,32.95178599998163],[-96.93894999968911,32.951792999787045],[-96.93893600034373,32.951817999625845],[-96.9389199995519,32.951933000300826],
[-96.93888699993992,32.95215299979872],[-96.93902199965915,32.95249600024653],[-96.93917599964493,32.95266499963488],[-96.93942800043833,32.95289099976155],[-96.93974499973243,32.9531660002136],[-96.93997999990906,32.95343400013516],[-96.94033700028443,
32.95379400024714],[-96.94050700016373,32.95399100020489],[-96.94064400043109,32.95417399973781],[-96.94092800011323,32.95446299990899],[-96.94133300016918,32.95493399984782],[-96.94181299966989,32.95543700013319],[-96.94233200042697,32.95590999990118],
[-96.94288700027076,32.95621499982738],[-96.94333900018238,32.95697599995922],[-96.94372400014683,32.957757999829724],[-96.94380299978955,32.95857899979945],[-96.943967999646,32.9593920002668],[-96.94402299989758,32.9604739999153],[-96.94413199967754,
32.96122499992621],[-96.94407599960103,32.96205400001937],[-96.94394400025486,32.962612000199236],[-96.94410599973826,32.96287899994645],[-96.94414000007345,32.963151999886826],[-96.94412500000483,32.96345500011685],[-96.94415299959392,32.963693000203136],
[-96.94425499970117,32.96371200023619],[-96.9447989996743,32.96437399986911],[-96.94484100040542,32.96442500011093],[-96.94489599975867,32.9646650001443],[-96.94492400024608,32.964784999916546],[-96.94501299993455,32.96598499997906],[-96.94501499958437,
32.966042000094724],[-96.94501499958437,32.966081000033626],[-96.94500600026184,32.96654900021867],[-96.94380299978955,32.967475999628725],[-96.94335000005302,32.96747099979376],[-96.94319199986928,32.96758599969443],[-96.94280400043007,32.967827000298165],
[-96.94260799971319,32.96795300021759],[-96.94234400012253,32.96817299977762],[-96.94228399984807,32.96823399967167],[-96.94222799977157,32.968296999740424],[-96.94219799963435,32.968333999975194],[-96.94218400028898,32.96835100030193],[-96.94210599957285,
32.96846200013821],[-96.94204399964858,32.96856499974607],[-96.94203100012808,32.968585999695335],[-96.94202899957996,32.9686079997444],[-96.94201400040966,32.96882900003656],[-96.94203600015096,32.96894000002581],[-96.94210700029608,32.969040999630096],
[-96.94221600007603,32.96911899985729],[-96.9423480003205,32.96935599966131],[-96.94239199980312,32.96948199966078],[-96.94244899970452,32.96956000025221],[-96.94251200035202,32.96966999998371],[-96.94256599988039,32.96987900030196],[-96.94259199981965,
32.97005899982632],[-96.94259000016984,32.970208000067856],[-96.94262799980466,32.97022500003392],[-96.94293499995132,32.97056099984439],[-96.94308399991425,32.971108999789585],[-96.94314500001362,32.97141099978604],[-96.9433629995735,32.971803999772376],
[-96.9436510003519,32.9719750000489],[-96.94408700037,32.97202500035805],[-96.94436500020436,32.97201699982818],[-96.94472300040462,32.97193200018239],[-96.94501999960723,32.971867000309416],[-96.94547599971682,32.97164399994105],[-96.94572699978697,
32.971265000291034],[-96.9457350001829,32.97084099996611],[-96.94585300018367,32.970628000088865],[-96.94597899968205,32.970476000304714],[-96.94606099969782,32.97035499988793],[-96.94604200032957,32.969896999667995],[-96.94598100023019,32.96965099972471],
[-96.94602300006298,32.96947300031277],[-96.94623800014814,32.96926399978747],[-96.94638600028614,32.9691549996491],[-96.94669099988468,32.96912499969804],[-96.9469670000692,32.96914899981038],[-96.94725800032234,32.96920999978411],[-96.94749599997371,
32.96919100017984],[-96.94750000017167,32.96900100014388],[-96.94739899988932,32.96869900019767],[-96.94722499981206,32.96845999992513],[-96.94699899985625,32.968158999746606],[-96.94687300035787,32.967777999987824],[-96.94687800038075,32.967510999972816],
[-96.94699899985625,32.96739000001638],[-96.94739800006442,32.96727200025432],[-96.94768900031755,32.96727499986062],[-96.94818999973465,32.9673369997404],[-96.94858499974487,32.967454000051355],[-96.94912600024327,32.967550000016864],[-96.94953299994904,
32.96770000008382],[-96.95031700012169,32.96774199963489],[-96.95057900006252,32.9676569996435],[-96.95073999972098,32.967642000168546],[-96.95210100037703,32.96755900031447],[-96.9524029996025,32.96766300033717],[-96.95245000035648,32.9676560002815],
[-96.95284700001652,32.96835100030193],[-96.952867000108,32.96839499975807],[-96.94988699995139,32.96811500017291],[-96.94924300041914,32.97297299998965],[-96.950086000143,32.972997999865285],[-96.95061800042056,32.97301099982796],[-96.9535299999068,
32.97306799993154],[-96.95427800009446,32.97307899977543],[-96.95433499999587,32.97308199993818],[-96.95457799967011,32.97334100003679],[-96.95464600034047,32.97341299993216],[-96.95463100027187,32.97344099983378],[-96.95456500014963,32.97344099983378],
[-96.95452900016461,32.973509000203805],[-96.9544089996157,32.973735999818686],[-96.95401699997853,32.973966999780636],[-96.95384600027432,32.974531000300686],[-96.95365299993047,32.97517000029771],[-96.95364700008268,32.97519300024444],[-96.95308399984299,
32.975905000120584],[-96.95307700017028,32.97595099962517],[-96.95305299988085,32.976095999643235],[-96.95306499957641,32.97624100017682],[-96.95309399988872,32.97639399985287],[-96.9531690002318,32.97654700001738],[-96.95317300042974,32.97657299964956],
[-96.95326600031618,32.97661200021391],[-96.95344000039344,32.976684999716724],[-96.95366999964891,32.97678200021183],[-96.95395199968121,32.976789000297835],[-96.95401500032871,32.97677600013768],[-96.95413099978136,32.976749999811666],[-96.95424299993434,
32.976698999903526],[-96.9543459998665,32.9766710002813],[-96.95442600023244,32.976688999770325],[-96.9544710004383,32.976736999645816],[-96.95449599965434,32.976844000200586],[-96.95447700028608,32.9769539999033],[-96.95443899975292,32.9770650002317],
[-96.95427499972139,32.977459999936016],[-96.95424399975926,32.977685999943255],[-96.95424899978214,32.9778880001337],[-96.95427499972139,32.97804799995661],[-96.95440199994302,32.97832699970777],[-96.95452599979157,32.978543999825895],[-96.95467499975449,
32.97870899991993],[-96.95485499967954,32.978762000154134],[-96.95503200012985,32.97874100036375],[-96.95516299965111,32.97866400033588],[-96.95528400002492,32.97854799979529],[-96.95544499968342,32.978251000068205],[-96.95559500036956,32.97807699989343],
[-96.95575299965499,32.977981000066045],[-96.95598199998386,32.977933000113154],[-96.95617100012974,32.977936000111],[-96.95639999956026,32.97797000007913],[-96.95661600036865,32.97800800002802],[-96.95683200027872,32.9780329999855],[-96.957146999923,
32.9779840000622],[-96.95737600025186,32.97784000013026],[-96.95771099998761,32.97772200001101],[-96.95804999992133,32.97769999997135],[-96.95840200027382,32.977741000040844],[-96.95874600023042,32.977870000135496],[-96.95815799987635,32.98037200011315],
[-96.957443000199,32.981318999853094],[-96.95739700016824,32.981577999906946],[-96.95748800040485,32.98179700023538],[-96.95770400031492,32.98194099974241],[-96.95819200021154,32.981999000063574],[-96.95864599977298,32.98194099974241],[-96.95882700042128,
32.98182699964969],[-96.95891799975955,32.98168199999988],[-96.95896600033844,32.981406000179966],[-96.95899899995041,32.98093900031344],[-96.95898800007974,32.98057900003415],[-96.9590409997832,32.980487999764634],[-96.95916200015702,32.980560999830935],
[-96.95928299963253,32.98058999969599],[-96.95949600006786,32.9805760001261],[-96.95980300021452,32.98062500011816],[-96.96006500015535,32.98070799975037],[-96.96021999996604,32.98080800024771],[-96.96037599960165,32.98096400019463],[-96.96056300009772,
32.98125899991551],[-96.96070399966472,32.98160900010686],[-96.9607150004337,32.98176300023377],[-96.96066900040293,32.98189900016162],[-96.96059099968681,32.98201699997362],[-96.96048799975465,32.982106000270306],[-96.96033600031699,32.98216299977816],
[-96.95995800002524,32.982238999818264],[-96.9595699996877,32.98230400034602],[-96.9593010000742,32.98238500000925],[-96.95915299993618,32.982449999675964],[-96.9590680004457,32.98254499997219],[-96.95905400020197,32.982625000221695],[-96.9590680004457,
32.982723000164825],[-96.95915299993618,32.98281600027935],[-96.95942200044801,32.982948000322374],[-96.95964099983281,32.983046999848305],[-96.95973200006941,32.98313100015824],[-96.95983099980361,32.98328799970691],[-96.95988100003233,32.98352799972524],
[-96.95986699978863,32.98368500007495],[-96.9597809995749,32.98379800009626],[-96.95965199970347,32.983876000099954],[-96.95931199994483,32.984105000050725],[-96.95922099970825,32.98422800032197],[-96.95920700036287,32.98432899977334],[-96.95927599995984,
32.984413000370544],[-96.95934799992985,32.98443999987271],[-96.95940499983126,32.98446400034423],[-96.9596109996956,32.984529999911885],[-96.95977200025239,32.984597000107534],[-96.95983199962853,32.98464099975854],[-96.95983400017667,32.984713000236084],
[-96.95977999974998,32.9847800002929],[-96.95948799967195,32.98500599964824],[-96.95939499978553,32.985097999700216],[-96.95939300013569,32.985218000344666],[-96.95942300027293,32.985342999649504],[-96.95940499983126,32.985533999854866],[-96.95953100022795,
32.98572000009166],[-96.9595489997713,32.98574799985844],[-96.95980599968925,32.9860799997527],[-96.96015700021685,32.986312999631856],[-96.96040900011194,32.9863950000413],[-96.96063599989265,32.98635899974227],[-96.96086100002356,32.98632799970325],
[-96.96119400010947,32.98632799970325],[-96.96149600023328,32.986345000333664],[-96.96184400038783,32.986393000234386],[-96.96221299956045,32.986474999816],[-96.96252999975286,32.98657300000635],[-96.96284799977018,32.98673299991413],[-96.96312899997756,
32.986925000023454],[-96.9635390000564,32.987192000117034],[-96.9640410001967,32.987573999648156],[-96.96457099992615,32.98819599992349],[-96.9647430003536,32.98831799988736],[-96.96486800002705,32.988367999984376],[-96.96500699994424,32.988389999626314],
[-96.96517199980067,32.988385000221896],[-96.9661300000506,32.98821900024456],[-96.96623700018073,32.988203999741],[-96.96639399964123,32.98819599992349],[-96.96653900030451,32.98822799994266],[-96.96670199961281,32.98830400003593],[-96.96667900004658,
32.98890400017973],[-96.9666720003739,32.989084000105734],[-96.96636500022723,32.9890809997332],[-96.96635199980844,32.98959400016295],[-96.96666499980289,32.98974500032658],[-96.96711099986672,32.99005899972994],[-96.96779200010721,32.99052100029094],
[-96.96842200029404,32.99086300035205],[-96.96870400032637,32.99092199993779],[-96.96960999979942,32.99100700013999],[-96.97096300005954,32.99103300003479],[-96.9717770003694,32.99099700012042],[-96.97190799989066,32.99096700005506],[-96.9723759996958,
32.990968999758344],[-96.97259800035197,32.99094799985764],[-96.97375800026825,32.99071299969526],[-96.9737900000553,32.990707999668984],[-96.9739239999496,32.990605000270065],[-96.9743540001199,32.99172399979345],[-96.97453200039513,32.99208600026286],
[-96.97538199979171,32.991829999672504],[-96.97629099963781,32.991464000275926],[-96.97706899996267,32.99107899994583],[-96.97795600006746,32.990565000002945],[-96.97945200044272,32.989562999753055],[-96.98006900021079,32.98920299998076],[-96.98026300037955,
32.98906000013677],[-96.98054500041185,32.98885299975727],[-96.9805770001989,32.988830000354895],[-96.98162999998506,32.98815500018808],[-96.98237700034777,32.98768099987928],[-96.98248199992975,32.987613999763816],[-96.98342599993596,32.98701700033595],
[-96.98345900044623,32.98699700014514],[-96.98423000020009,32.986531000368636],[-96.98504899963451,32.98608099965968],[-96.9854210000785,32.98593899994104],[-96.98667700025425,32.98546200004693],[-96.98681699999632,32.98543899976099],[-96.98838500034161,
32.985151999784364],[-96.98910000001895,32.985123999828545],[-96.98974600009933,32.985158999960284],[-96.99070599999907,32.98519400007814],[-96.99166599989881,32.985333999657215],[-96.99301599978587,32.98567199982501],[-96.9932209998253,32.98574199964005],
[-96.99340199957525,32.985797999904214],[-96.99339699955239,32.985954000075985],[-96.99340400012339,32.986394000137814],[-96.99340800032135,32.986629999644116],[-96.99341599981896,32.987025000260324],[-96.99342300038997,32.98716900028186],[-96.99320400010686,
32.98706499987126],[-96.99275300002016,32.98693100016143],[-96.99226699977334,32.986766000362906],[-96.99186300044062,32.98665799987572],[-96.99144400014096,32.98656599994251],[-96.99088099990125,32.98646699984178],[-96.99031099998886,32.98640000031189],
[-96.99023999984374,32.986396999848175],[-96.990237000369,32.98678300015546],[-96.99021499972937,32.98917900004422],[-96.9931150004184,32.98920999983549],[-96.9931089996723,32.989344999723095],[-96.99310399964942,32.98944299974094],[-96.99317499979453,
32.98944299974094],[-96.99329000032057,32.989448999707754],[-96.99340099975035,32.98944299974094],[-96.9933980002756,32.99010400028716],[-96.99341400016914,32.99099600026912],[-96.9933980002756,32.99228799990431],[-96.99335100041995,32.993086999919164],
[-96.99334399984893,32.993390999739425],[-96.99612599963885,32.99336700018824],[-96.9963619996404,32.99336999966156],[-97.00048300034504,32.993419999910444],[-97.00194000036225,32.99343699992829],[-97.0021279997849,32.99344199980001],[-97.00505299968995,
32.99348300009324],[-97.00534300011817,32.99348600031614],[-97.00558699961734,32.99326499995092],[-97.00915199975498,32.99003099982371],[-97.00982799997257,32.989418000000484],[-97.01025599959475,32.98942200023065],[-97.010582000008,32.98942599970719],
[-97.01087300026113,32.989429000068],[-97.01103499974451,32.98932199969542],[-97.01089599982734,32.98932099982509],[-97.01080799996379,32.989221999800336],[-97.01097700001822,32.989063999629714],[-97.01120999964671,32.98885199988163],[-97.01194299976571,
32.98823399999207],[-97.01239800005038,32.987892000292916],[-97.01264400009767,32.98770700000034],[-97.0128130001521,32.987575000291784],[-97.01296999961261,32.98746500025826],[-97.01320300013943,32.98730099984411],[-97.01365000002816,32.98742199964613],
[-97.01386799958806,32.987481999916184],[-97.01419700037434,32.98758300016552],[-97.01449399957694,32.987665000148716],[-97.01481199959426,32.98774000008505],[-97.01506600003748,32.987808999879704],[-97.01520599977957,32.987850999662804],[-97.01533300000116,
32.98790000013799],[-97.01550399970539,32.98794099999184],[-97.0157010002472,32.987980000055735],[-97.01590999958626,32.987993999958505],[-97.01614200028817,32.98798999966362],[-97.01636700041908,32.98794600017491],[-97.01666199997184,32.987888999879914],
[-97.01674099961457,32.98786799999991],[-97.0167990002392,32.987848000001854],[-97.01691499969182,32.98779200028475],[-97.01696099972258,32.98775200024974],[-97.01698199963897,32.98770700000034],[-97.01699000003491,32.98765900006064],[-97.01699000003491,
32.98743599963746],[-97.0169880003851,32.98708500004671],[-97.01699800043083,32.986990000114986],[-97.01702900039297,32.98683199971654],[-97.01705500033225,32.98675599986291],[-97.0171170002565,32.986614999624045],[-97.01719500007432,32.98649999963654],
[-97.0172849995877,32.98640399992537],[-97.01734099966419,32.98635799983839],[-97.01740400031169,32.98631400028972],[-97.01750300004589,32.98625699969438],[-97.01760699980298,32.98621300009536],[-97.01787600031479,32.98612799979745],[-97.01806999958524,
32.98610900006542],[-97.01818199973825,32.98611899988524],[-97.01826600030215,32.98613499989604],[-97.01832499985336,32.98615600018834],[-97.01838500012782,32.98618499972262],[-97.01844000037941,32.98621800037627],[-97.01861199990856,32.98634800004563],
[-97.01875699967349,32.98647700037457],[-97.01898799965217,32.98669499995288],[-97.0191640002776,32.98688299979975],[-97.01923200004966,32.98696199998865],[-97.01928099955514,32.98703099963799],[-97.0193900002334,32.98726499991458],[-97.01944499958668,
32.987466000149546],[-97.01947999974678,32.9876660000378],[-97.01949399999047,32.98775400002587],[-97.01952699960242,32.98796799992198],[-97.01954800041716,32.98824199980616],[-97.01954800041716,32.9885459997383],[-97.0195669997854,32.98930399976784],
[-97.0195669997854,32.98952399963517],[-97.02077699993039,32.98954200027131],[-97.02080899971745,32.989617999986656],[-97.02083399983181,32.98978699994191],[-97.02083300000689,32.98989999968693],[-97.02080899971745,32.990045000154645],[-97.02078000030343,
32.990112999793105],[-97.02073300044779,32.990170000158805],[-97.02071400018121,32.99018799990978],[-97.0206220001197,32.99027399992487],[-97.02051199961652,32.990385999941616],[-97.0204609995629,32.99046400015186],[-97.02052900023328,32.99041600020452],
[-97.02062399976953,32.99036300018528],[-97.02072000002899,32.99031000013413],[-97.02080399969458,32.990261000243365],[-97.02085800012125,32.99023000006779],[-97.02087999986256,32.99021800023994],[-97.02096600007629,32.990165000101776],[-97.02101100028213,
32.99013200017022],[-97.02106499981048,32.99008599976562],[-97.02167900010382,32.98962399994158],[-97.02177899966291,32.989549000099146],[-97.02202700025836,32.98936400026553],[-97.02218999956666,32.98921900018603],[-97.02373500034572,32.98782999977375],
[-97.02427000009801,32.98734899997849],[-97.02498599960028,32.98670600035975],[-97.0250500000727,32.986648000116936],[-97.02601400017039,32.985783999653115],[-97.02634499970819,32.98548800006805],[-97.02691299997075,32.98497399996803],[-97.02703900036745,
32.98486299978662],[-97.02705600008588,32.98484800021975],[-97.02712399985795,32.984784999901436],[-97.02741299956294,32.98452500028891],[-97.026718999802,32.984518000062664],[-97.02649600021924,32.98451500028851],[-97.02634600043139,32.98451299968546],
[-97.02619999994323,32.98451199976073],[-97.02574499965856,32.984507000136674],[-97.0256559999701,32.98450600021186],[-97.02546500017438,32.984504000362094],[-97.02516399987552,32.98449999990905],[-97.02405500001286,32.98448800005574],[-97.02229599987187,
32.984468999970716],[-97.02184800015822,32.98446400034423],[-97.02161399980649,32.98446099981471],[-97.0205519997995,32.9844489999561],[-97.02003600031378,32.9844470001051],[-97.01998199988711,32.98444299964942],[-97.01862500032733,32.98443299963972],
[-97.01730300002937,32.98442099977736],[-97.01727299989213,32.98442099977736],[-97.01700199973048,32.98441799999987],[-97.01681099993476,32.98441600014816],[-97.01732200029592,32.98396200023663],[-97.01843700000636,32.982823999830885],[-97.02061799992173,
32.980776999766555],[-97.02074299959521,32.98066199970961],[-97.02165800018741,32.97982400037472],[-97.02468100000175,32.97705600014919],[-97.02550500035736,32.97630199977409],[-97.02815599972772,32.973877000278364],[-97.02881400040195,32.973147999724056],
[-97.0291199998254,32.972800000023305],[-97.02966399979853,32.97213099977438],[-97.02995900024962,32.971734000211555],[-97.03051499991831,32.971030999812385],[-97.03101399968558,32.970406999775896],[-97.03139399962718,32.96996000005794],[-97.03143800000812,
32.96992299975065],[-97.03143800000812,32.96990699981663],[-97.03144399985591,32.96957700034297],[-97.03144700022895,32.96941800034144],[-97.0314580000996,32.96876300003794],[-97.0314639999474,32.96846200013821],[-97.03147499981806,32.967807999642744],
[-97.03165399991819,32.95765000004549],[-97.03170699962165,32.9550009998833],[-97.0318089997289,32.949283999903024],[-97.03181700012482,32.948850000111086],[-97.03181700012482,32.94879199988369],[-97.03182499962242,32.948165000078085],[-97.03187499985113,
32.9457730001164],[-97.03187900004909,32.94550599994975]]]},"properties":{"GEOID":"4816612","STATE":"48","PLACE":"16612","NAME":"Coppell city","BASENAME":"Coppell","AREALAND":37397589,"AREAWATER":804255}}
